{"type":"FeatureCollection","features":[{"type":"Feature","properties":{"name":"Valparaíso","comuna":"Valparaíso","cut":"05101","metro":"Gran Valparaíso","es_bbox":false},"geometry":{"type":"Polygon","coordinates":[[[-71.5821,-33.0378],[-71.5723,-33.0485],[-71.5574,-33.0524],[-71.5559,-33.0692],[-71.5482,-33.0768],[-71.5418,-33.0896],[-71.5464,-33.0967],[-71.5427,-33.1019],[-71.5272,-33.1031],[-71.5192,-33.0976],[-71.5116,-33.0989],[-71.5044,-33.0949],[-71.493,-33.104],[-71.4787,-33.117],[-71.4889,-33.1268],[-71.4802,-33.1342],[-71.4774,-33.1455],[-71.4685,-33.1529],[-71.4535,-33.1545],[-71.4451,-33.1628],[-71.4315,-33.1618],[-71.4192,-33.1666],[-71.4133,-33.1721],[-71.3931,-33.1745],[-71.3908,-33.1804],[-71.383,-33.1838],[-71.39525795454546,-33.1999],[-71.54711242236024,-33.1999],[-71.5526,-33.1904],[-71.5689,-33.186],[-71.581,-33.1896],[-71.5972,-33.1758],[-71.6023,-33.1664],[-71.6116,-33.1659],[-71.623,-33.1589],[-71.6357,-33.1577],[-71.6561,-33.1665],[-71.6702,-33.159],[-71.6872,-33.1583],[-71.7001,-33.1555],[-71.7109,-33.1462],[-71.7073,-33.1398],[-71.7203,-33.1306],[-71.7236,-33.12634915254237],[-71.7236,-33.091809243697476],[-71.7162,-33.0961],[-71.701,-33.1021],[-71.6761,-33.1029],[-71.6631,-33.0935],[-71.6684,-33.0832],[-71.663,-33.0762],[-71.6609,-33.0541],[-71.6621,-33.0484],[-71.6563,-33.0353],[-71.6469,-33.0203],[-71.6347,-33.0195],[-71.6279,-33.0277],[-71.6282,-33.0363],[-71.622,-33.0421],[-71.6123,-33.0428],[-71.5872,-33.0285],[-71.5821,-33.0378]]]}},{"type":"Feature","properties":{"name":"Viña Del Mar","comuna":"Viña Del Mar","cut":"05109","metro":"Gran Valparaíso","es_bbox":false},"geometry":{"type":"Polygon","coordinates":[[[-71.5044,-33.0949],[-71.5116,-33.0989],[-71.5192,-33.0976],[-71.5272,-33.1031],[-71.5427,-33.1019],[-71.5464,-33.0967],[-71.5418,-33.0896],[-71.5482,-33.0768],[-71.5559,-33.0692],[-71.5574,-33.0524],[-71.5723,-33.0485],[-71.5821,-33.0378],[-71.5872,-33.0285],[-71.5769,-33.0275],[-71.563,-33.0195],[-71.5523,-33.0081],[-71.5467,-32.9878],[-71.5471,-32.9531],[-71.5508,-32.9458],[-71.5451,-32.9491],[-71.5129,-32.9588],[-71.476,-32.9801],[-71.4614,-32.9857],[-71.4506,-32.9924],[-71.4428,-33.002],[-71.4457,-33.0132],[-71.4544,-33.0193],[-71.4705,-33.0152],[-71.4703,-33.0208],[-71.4853,-33.0368],[-71.4839,-33.0424],[-71.489,-33.0537],[-71.4859,-33.0601],[-71.4773,-33.0659],[-71.4698,-33.0665],[-71.48,-33.0888],[-71.4871,-33.0888],[-71.494,-33.1002],[-71.493,-33.104],[-71.5044,-33.0949]]]}},{"type":"Feature","properties":{"name":"Quilpué","comuna":"Quilpué","cut":"05801","metro":"Gran Valparaíso","es_bbox":false},"geometry":{"type":"Polygon","coordinates":[[[-71.3908,-33.1804],[-71.3931,-33.1745],[-71.4133,-33.1721],[-71.4192,-33.1666],[-71.4315,-33.1618],[-71.4451,-33.1628],[-71.4535,-33.1545],[-71.4685,-33.1529],[-71.4774,-33.1455],[-71.4802,-33.1342],[-71.4889,-33.1268],[-71.4787,-33.117],[-71.493,-33.104],[-71.494,-33.1002],[-71.4871,-33.0888],[-71.48,-33.0888],[-71.4698,-33.0665],[-71.4773,-33.0659],[-71.4859,-33.0601],[-71.489,-33.0537],[-71.4839,-33.0424],[-71.4853,-33.0368],[-71.4703,-33.0208],[-71.4705,-33.0152],[-71.4544,-33.0193],[-71.4457,-33.0132],[-71.4428,-33.002],[-71.4337,-33.0007],[-71.4238,-33.0083],[-71.3987,-33.0131],[-71.3993,-33.0265],[-71.3983,-33.0461],[-71.4,-33.0663],[-71.3874,-33.0741],[-71.3788,-33.0749],[-71.3758,-33.0819],[-71.3668,-33.086],[-71.3666,-33.0927],[-71.359,-33.098],[-71.3418,-33.1029],[-71.333,-33.1089],[-71.3218,-33.1083],[-71.3098,-33.119],[-71.2997,-33.1174],[-71.2862,-33.1211],[-71.2674,-33.1167],[-71.2473,-33.1313],[-71.2468,-33.13184273504274],[-71.2468,-33.1999],[-71.34575,-33.1999],[-71.348,-33.1939],[-71.3651,-33.1793],[-71.377,-33.1801],[-71.383,-33.1838],[-71.3908,-33.1804]]]}},{"type":"Feature","properties":{"name":"Villa Alemana","comuna":"Villa Alemana","cut":"05804","metro":"Gran Valparaíso","es_bbox":false},"geometry":{"type":"Polygon","coordinates":[[[-71.2862,-33.1211],[-71.2997,-33.1174],[-71.3098,-33.119],[-71.3218,-33.1083],[-71.333,-33.1089],[-71.3418,-33.1029],[-71.359,-33.098],[-71.3666,-33.0927],[-71.3668,-33.086],[-71.3758,-33.0819],[-71.3788,-33.0749],[-71.3874,-33.0741],[-71.4,-33.0663],[-71.3983,-33.0461],[-71.3993,-33.0265],[-71.3987,-33.0131],[-71.3829,-33.0144],[-71.3743,-33.0247],[-71.3591,-33.029],[-71.3472,-33.0364],[-71.3427,-33.0425],[-71.328,-33.0441],[-71.3276,-33.038],[-71.3197,-33.0233],[-71.2971,-33.0119],[-71.2858,-33.0187],[-71.2899,-33.0289],[-71.2855,-33.0376],[-71.2904,-33.0499],[-71.2902,-33.0572],[-71.2789,-33.0696],[-71.2769,-33.0802],[-71.2567,-33.1003],[-71.2674,-33.1167],[-71.2862,-33.1211]]]}},{"type":"Feature","properties":{"name":"Concón","comuna":"Concón","cut":"05103","metro":"Gran Valparaíso","es_bbox":false},"geometry":{"type":"Polygon","coordinates":[[[-71.4429,-32.9233],[-71.4374,-32.9332],[-71.4323,-32.9306],[-71.4268,-32.9395],[-71.4176,-32.9408],[-71.4132,-32.933],[-71.4033,-32.9428],[-71.4025,-32.9528],[-71.3875,-32.9666],[-71.3977,-32.9745],[-71.4248,-32.9762],[-71.4345,-32.9942],[-71.4337,-33.0007],[-71.4428,-33.002],[-71.4506,-32.9924],[-71.4614,-32.9857],[-71.476,-32.9801],[-71.5129,-32.9588],[-71.5451,-32.9491],[-71.5508,-32.9458],[-71.5514,-32.9284],[-71.533,-32.9302],[-71.5229,-32.918],[-71.5148,-32.9201],[-71.5078,-32.9152],[-71.4807,-32.9203],[-71.4645,-32.9176],[-71.4501,-32.9233],[-71.4431,-32.9231],[-71.4429,-32.9233]]]}}]}