{"type":"FeatureCollection","features":[{"type":"Feature","properties":{"cut":5101,"comuna":"VALPARAÍSO"},"geometry":{"type":"MultiPolygon","coordinates":[[[[-71.74309088799993,-33.099624913999946],[-71.7457276369999,-33.09964308599996],[-71.74554409699994,-33.10088627299996],[-71.74292857099994,-33.100745168999936],[-71.74309088799993,-33.099624913999946]]],[[[-71.6389246299999,-33.01819277699991],[-71.64250323899995,-33.018205457999954],[-71.64484387599992,-33.021881426999926],[-71.6464107139999,-33.02022234899994],[-71.64727530999994,-33.02165149399991],[-71.64917346599992,-33.021587834999934],[-71.64795531099992,-33.023270289999914],[-71.64938895099993,-33.02637998299991],[-71.65468745399994,-33.02715902099993],[-71.6541905279999,-33.02904563699991],[-71.65610239499995,-33.028990231999956],[-71.65690019999994,-33.03074080499994],[-71.6559740699999,-33.03119782899995],[-71.65753649599992,-33.03168893199995],[-71.65642702799994,-33.03446229499991],[-71.65741559999992,-33.034823252999956],[-71.65626765699994,-33.03522928599995],[-71.65739516299993,-33.03702566499993],[-71.65641940499995,-33.03765542299993],[-71.65858683999994,-33.03868316299992],[-71.65996099499995,-33.04160608899991],[-71.65863435699993,-33.042601787999956],[-71.65857705499991,-33.0455048739999],[-71.66214510499992,-33.04840926199995],[-71.66060232799992,-33.04931489099994],[-71.66208904699994,-33.05091384399992],[-71.6588506359999,-33.05392967999995],[-71.66181562799994,-33.05516357999994],[-71.66084458899991,-33.05585224199996],[-71.66138930199992,-33.06022777599992],[-71.6602824549999,-33.06275866599992],[-71.66275954399993,-33.06387788899991],[-71.66209830299994,-33.074783778999915],[-71.66737457399995,-33.077850079999905],[-71.66914630299993,-33.08030420099993],[-71.66813659099995,-33.083634901999915],[-71.66381382799995,-33.087945042999934],[-71.6627947099999,-33.091374586999905],[-71.66330797799992,-33.09381582099991],[-71.66779521899991,-33.098630708999906],[-71.67492876499995,-33.10257821099992],[-71.67823134799994,-33.10172204299994],[-71.67950800199992,-33.10355967299995],[-71.68453768199993,-33.103519225999946],[-71.68638528199995,-33.10208736399994],[-71.68832587599991,-33.103931247999924],[-71.68984779399995,-33.10213345799991],[-71.69293449199995,-33.10297740699991],[-71.69611369199993,-33.101520397999934],[-71.6983946389999,-33.10263554099993],[-71.70430474199992,-33.10040787799994],[-71.70406346499993,-33.09916205499991],[-71.70806363799994,-33.09965997799992],[-71.70909669799994,-33.09816389999992],[-71.71877603199994,-33.09638211799995],[-71.72008091999993,-33.093419285999914],[-71.72243407299993,-33.09358490099993],[-71.72347902599995,-33.09085856899992],[-71.73026086199991,-33.08896353499995],[-71.73420135399994,-33.089999889999945],[-71.73306319299991,-33.09176386799993],[-71.7349723669999,-33.091935624999905],[-71.73615746099995,-33.09619435199994],[-71.73845565899995,-33.0958218799999],[-71.73968494199994,-33.09822030099991],[-71.74238991999994,-33.097853897999926],[-71.74006072599991,-33.10092989799995],[-71.73429029999994,-33.10188294199992],[-71.73537825799991,-33.104228117999924],[-71.7392393529999,-33.10594733799991],[-71.73582112499992,-33.11114460299996],[-71.7345980529999,-33.11099985399994],[-71.73601870999994,-33.11219092199991],[-71.73501836199995,-33.11389541799991],[-71.7366454829999,-33.11439329399991],[-71.73576958699994,-33.11519513099995],[-71.73633275499992,-33.118211619999954],[-71.7322078649999,-33.11906342499992],[-71.73010091799995,-33.121536575999926],[-71.72653065999992,-33.12266416199992],[-71.72622045399993,-33.12535574099991],[-71.7250687849999,-33.12506854399993],[-71.71960493099994,-33.12903511399992],[-71.72030098899995,-33.13059036399994],[-71.71490441599991,-33.13262946099991],[-71.71209245099993,-33.13574169099991],[-71.70672382999993,-33.13705551999993],[-71.70716138099993,-33.139717230999906],[-71.7121634319999,-33.14094468999991],[-71.71219154699992,-33.14268514899993],[-71.71059149999991,-33.143909342999905],[-71.71085163099991,-33.14617874999993],[-71.70946554199992,-33.14611956999994],[-71.70989050599991,-33.14713136799992],[-71.70691899199994,-33.148778956999934],[-71.70535733299994,-33.15210436399991],[-71.7066374929999,-33.15202557799995],[-71.70615740799991,-33.15334694899991],[-71.7035482149999,-33.15232236199995],[-71.69991892399992,-33.15324924899994],[-71.70007821999991,-33.15550085199993],[-71.69747956999993,-33.15511032699993],[-71.68720891099991,-33.15833737199995],[-71.68424474999995,-33.15680318999995],[-71.6702172759999,-33.159042593999914],[-71.6625037199999,-33.16134780899995],[-71.65612275599995,-33.16650567999994],[-71.65074384999991,-33.164673654999945],[-71.6402663579999,-33.15828754499995],[-71.63874809599992,-33.15952033099995],[-71.63573029699995,-33.15771356199991],[-71.63193501499995,-33.15945201799991],[-71.62977576299994,-33.15834704899993],[-71.62436592899991,-33.15975114199995],[-71.62271186299995,-33.15892139999994],[-71.6198871329999,-33.161978699999906],[-71.61453845999995,-33.164858472999924],[-71.61089118899991,-33.16604563099992],[-71.60249419899992,-33.16611459399991],[-71.60253827799994,-33.169151933999956],[-71.60094131999995,-33.17185181399992],[-71.59684128399994,-33.17600128799995],[-71.59190599199991,-33.17716823099994],[-71.59057657399995,-33.18172127099996],[-71.58102016799995,-33.189598908999926],[-71.5761035399999,-33.18935468899991],[-71.5690755089999,-33.18598741299991],[-71.56556617799993,-33.18850841299991],[-71.55920358399993,-33.1888702249999],[-71.55860390299995,-33.190792711999904],[-71.55171072699994,-33.19074200299991],[-71.54929233699994,-33.195793275999904],[-71.54922340999991,-33.200138660999926],[-71.54399490399993,-33.202309707999916],[-71.5436630559999,-33.206123989999924],[-71.53983646199993,-33.208009793999906],[-71.5369325929999,-33.213490892999914],[-71.52991266799995,-33.20841718199995],[-71.52560936499992,-33.20991483799992],[-71.5232208839999,-33.2093223249999],[-71.52074936199995,-33.212886785999956],[-71.51908081599993,-33.21006353899992],[-71.51331517799991,-33.209264204999954],[-71.50680502099993,-33.205359605999945],[-71.50167485499992,-33.20584729899991],[-71.49858793399994,-33.20357430799993],[-71.49505603699993,-33.205230023999945],[-71.49082345999994,-33.20957904099993],[-71.48555559699992,-33.209452624999926],[-71.48148452499993,-33.20516227199994],[-71.47838667999991,-33.204006130999915],[-71.47541453499991,-33.20566600099994],[-71.4717071689999,-33.201562201999934],[-71.46899202299994,-33.20044949399994],[-71.46222301499995,-33.20630537899996],[-71.44657175799995,-33.20375227199992],[-71.43578273199995,-33.20841145999992],[-71.43009014299992,-33.20539908699993],[-71.42575876299992,-33.20658499099994],[-71.41919830499995,-33.20565824799991],[-71.41079156099994,-33.2110242949999],[-71.40696524799995,-33.20914877999991],[-71.40757260999993,-33.205357713999945],[-71.40581367499993,-33.202058147999935],[-71.3998792129999,-33.20250544899994],[-71.39635664299993,-33.20144633399991],[-71.39252041599991,-33.19326653599995],[-71.3896226359999,-33.19246254099994],[-71.38300478499991,-33.18376717499996],[-71.3863716649999,-33.180269971999905],[-71.39082091599994,-33.18041327699996],[-71.3909756079999,-33.17786856399994],[-71.3943067319999,-33.173654065999926],[-71.40222502199993,-33.173811293999904],[-71.40748895399992,-33.17131876299993],[-71.41277383399995,-33.172316362999936],[-71.41833278199994,-33.16699783899992],[-71.4237880949999,-33.16600614099991],[-71.42942032899992,-33.162173251999945],[-71.44512749199993,-33.16284171099994],[-71.44686423499991,-33.15952658799995],[-71.45150579599994,-33.15815438599992],[-71.45391067599991,-33.15410625499993],[-71.4598065159999,-33.155599458999916],[-71.46845644199993,-33.15292453899991],[-71.47529273299995,-33.14616475199995],[-71.47744821999993,-33.14548604799995],[-71.48021544199992,-33.13506915699992],[-71.47829293799992,-33.13083714699991],[-71.48338222699994,-33.131263274999924],[-71.48891115499993,-33.12676574999995],[-71.48735771899993,-33.122894353999925],[-71.47872712599991,-33.117032423999945],[-71.48609144699992,-33.109078723999914],[-71.49786770799994,-33.10157357499992],[-71.50441378499994,-33.09486879199994],[-71.5063462519999,-33.095031666999944],[-71.50707870399992,-33.09664040799993],[-71.51117693099991,-33.09882249499992],[-71.51918700499994,-33.097639416999925],[-71.5272079369999,-33.103096329999914],[-71.53397661699995,-33.102642156999934],[-71.53750005599994,-33.104362858999934],[-71.54315808099994,-33.104951731999904],[-71.54290626499994,-33.101286468999945],[-71.5463997249999,-33.09665168499993],[-71.54244973399994,-33.09378532399995],[-71.54184084299993,-33.08932416199991],[-71.54600760799991,-33.08373035199992],[-71.54755339999991,-33.077562565999926],[-71.55668057799994,-33.06810531199994],[-71.55563013699992,-33.06355777099992],[-71.55882910899993,-33.058132746999945],[-71.5578288019999,-33.05056478999995],[-71.56477332599991,-33.05102342799995],[-71.57237976099992,-33.048452417999954],[-71.57524262699991,-33.04480726499992],[-71.57410789199992,-33.04353615499991],[-71.58206945099994,-33.037847695999915],[-71.58189987499992,-33.032837608999955],[-71.5872359949999,-33.02849616099991],[-71.60353805099993,-33.03708000499995],[-71.60722186499993,-33.041208508999944],[-71.60867323399992,-33.039833253999916],[-71.60889685599994,-33.041961242999946],[-71.62122400599992,-33.04243274599992],[-71.62537242899992,-33.03939202899994],[-71.6259638059999,-33.03573314099992],[-71.62677347599993,-33.037870116999954],[-71.62819716799993,-33.03630849099994],[-71.62655655799995,-33.033141119999925],[-71.62793622099991,-33.02768217899995],[-71.63132873099994,-33.02634373799992],[-71.63214756299993,-33.021868732999906],[-71.63462746699992,-33.01948921499991],[-71.63678455999991,-33.020006434999914],[-71.6389246299999,-33.01819277699991]]],[[[-79.9061044899999,-26.347064987999943],[-79.90616416499995,-26.348577703999922],[-79.9048213609999,-26.34817922399992],[-79.9061044899999,-26.347064987999943]]],[[[-79.86986359499991,-26.34039613999994],[-79.86907948899994,-26.341559125999936],[-79.86787409999994,-26.340705456999956],[-79.86986359499991,-26.34039613999994]]],[[[-79.8833483539999,-26.33443929099991],[-79.8878173789999,-26.334410842999944],[-79.88815465399995,-26.33627330999991],[-79.8901552989999,-26.33438833799994],[-79.89156379199994,-26.334837115999903],[-79.89105419899994,-26.33633188999994],[-79.8932928719999,-26.335094245999926],[-79.89256574099994,-26.336813054999936],[-79.89542867099993,-26.336112876999948],[-79.89681086099995,-26.33854765299992],[-79.8994166569999,-26.336829717999933],[-79.9015831829999,-26.338516597999956],[-79.90279902299994,-26.336693141999945],[-79.90450144499994,-26.343644510999923],[-79.90588772399991,-26.34494165399991],[-79.90486515399994,-26.34745277099995],[-79.8977841649999,-26.34897844099993],[-79.89148853099994,-26.34615363599994],[-79.88635707999993,-26.347553869999956],[-79.88261031799993,-26.34458144599995],[-79.87712527199994,-26.344525022999903],[-79.87111596099993,-26.34015321699991],[-79.87231900699993,-26.338149363999946],[-79.8745773839999,-26.33871784799993],[-79.87523451499993,-26.337337151999918],[-79.8766565709999,-26.337935149999907],[-79.87777957499992,-26.335777137999912],[-79.8793703849999,-26.336538941999947],[-79.8833483539999,-26.33443929099991]]],[[[-80.08496251299994,-26.30482745899991],[-80.08636470699992,-26.304619705999926],[-80.08730639899994,-26.306291510999927],[-80.08730979099994,-26.309934642999906],[-80.08517590299994,-26.31209697999992],[-80.08188481099995,-26.311719311999923],[-80.08496251299994,-26.30482745899991]]],[[[-80.09127238799994,-26.285938702999943],[-80.10386082999992,-26.287516646999904],[-80.1067055719999,-26.289615527999956],[-80.10741564499995,-26.291800407999915],[-80.1131204049999,-26.291908011999908],[-80.11461989199995,-26.295266968999954],[-80.11294989599992,-26.29671029499991],[-80.1105373019999,-26.29602722599992],[-80.10894898299995,-26.298735044999944],[-80.10776972999992,-26.297639742999934],[-80.10874285199992,-26.296463015999905],[-80.10568872999994,-26.29364056299994],[-80.10210733299994,-26.29346019199994],[-80.0863034269999,-26.299978522999936],[-80.08837032999992,-26.29025863599992],[-80.09127238799994,-26.285938702999943]]]]}},{"type":"Feature","properties":{"cut":5102,"comuna":"CASABLANCA"},"geometry":{"type":"Polygon","coordinates":[[[-71.69487953299995,-33.15580056999994],[-71.70011061999992,-33.1557647379999],[-71.69405625199994,-33.16294140499991],[-71.6931926229999,-33.16667277699992],[-71.6899298049999,-33.16755950999993],[-71.68669933699994,-33.17242667799991],[-71.68430981799992,-33.173291107999944],[-71.6848387579999,-33.18204364399992],[-71.68855317799995,-33.18333838199993],[-71.68952395399992,-33.188195106999956],[-71.69365273299991,-33.189588913999955],[-71.69669064699991,-33.188680088999945],[-71.69649323899995,-33.19023062499991],[-71.69903276999992,-33.19182999399993],[-71.69933308399993,-33.19373615899991],[-71.70361672199994,-33.192284929999914],[-71.70318662099993,-33.194372476999945],[-71.70715802799992,-33.19701237899994],[-71.70773395499992,-33.19938831899992],[-71.70554892199993,-33.202032334999956],[-71.70178281599993,-33.20231548599992],[-71.7035744929999,-33.205040744999906],[-71.7011932769999,-33.20416661699994],[-71.69919242599991,-33.20502187599993],[-71.70043626199993,-33.20887950899993],[-71.6984116129999,-33.207923784999934],[-71.69794366999992,-33.20983935699991],[-71.69435739399995,-33.21157429199991],[-71.69351680099993,-33.21409504499991],[-71.68709864699991,-33.21432783699993],[-71.68596477199992,-33.21744529499995],[-71.68164615099994,-33.221356072999924],[-71.6821566079999,-33.22526325899992],[-71.67982578099992,-33.22945312599995],[-71.6800093299999,-33.23363573499995],[-71.68492810399994,-33.23471041599993],[-71.68700540799995,-33.23658326399993],[-71.68659121099995,-33.2387872619999],[-71.68754726399993,-33.23885221599994],[-71.6862087319999,-33.24021218799993],[-71.69014688599992,-33.24176940499996],[-71.69021817899994,-33.244095226999946],[-71.69186571799992,-33.24405177199992],[-71.69202256999995,-33.24523929999992],[-71.69518138799992,-33.24493732499991],[-71.69533590299994,-33.247253551999904],[-71.69404904599992,-33.24818437599993],[-71.69529828399993,-33.24904464399992],[-71.6829039719999,-33.25482378899994],[-71.68215921599995,-33.258039022999924],[-71.68010218499995,-33.25985033899991],[-71.6803598589999,-33.261915281999904],[-71.67391489999994,-33.26568141699994],[-71.67578436399992,-33.26955644499992],[-71.67331231199995,-33.273268067999936],[-71.67472818199991,-33.27472430699993],[-71.6713939899999,-33.27812753399991],[-71.66772081899995,-33.27984107799995],[-71.65536757199993,-33.27614497999991],[-71.64824223399995,-33.26402357199993],[-71.64460535799992,-33.262538512999924],[-71.63769391599993,-33.2645222779999],[-71.63611355199993,-33.262015224999914],[-71.63423683699995,-33.26618199799992],[-71.63205297999991,-33.265798882999945],[-71.62998148499992,-33.267411197999934],[-71.62805347099993,-33.2664202869999],[-71.61983441699994,-33.26723935499996],[-71.6180150909999,-33.25928472399994],[-71.6164479219999,-33.25775167199993],[-71.61289127299995,-33.25751206199993],[-71.6083267859999,-33.25513244399991],[-71.60689913399995,-33.258153921999906],[-71.60737474099994,-33.26049844599993],[-71.60556353699991,-33.26070342499992],[-71.60278394399995,-33.256503454999915],[-71.5969914929999,-33.255062094999914],[-71.59598494499994,-33.251484072999915],[-71.58796752899991,-33.25314238999994],[-71.58721709999992,-33.254824638999935],[-71.58316217099991,-33.25597057099992],[-71.5768889499999,-33.26038292299995],[-71.5765030579999,-33.26230005699995],[-71.57970541199995,-33.26792499699991],[-71.5769510959999,-33.26684654699994],[-71.57180126199995,-33.26747807399994],[-71.56714379999994,-33.25922484299991],[-71.56251324599992,-33.25965097099993],[-71.56168394199995,-33.25705858899994],[-71.5574876689999,-33.26048569299991],[-71.5528558229999,-33.256119708999904],[-71.55131138299993,-33.25691552099994],[-71.54965058399995,-33.260960875999956],[-71.53721195799994,-33.25862291199991],[-71.5283179939999,-33.267441738999935],[-71.5317602209999,-33.268956439999954],[-71.53126610399994,-33.272761559999935],[-71.53851029599991,-33.28265681999994],[-71.54005318899993,-33.287761160999935],[-71.53824279399993,-33.29357266599993],[-71.53381779699993,-33.29587347599994],[-71.53083450699995,-33.30079675799993],[-71.53244999999993,-33.30638999999991],[-71.52306603999995,-33.31316911299996],[-71.52572403699992,-33.31764771299993],[-71.52220999999992,-33.321819999999946],[-71.52545475399995,-33.321482432999915],[-71.52743337099992,-33.32260224999993],[-71.5266554129999,-33.330981299999905],[-71.53000757699994,-33.334264779999955],[-71.53092094899995,-33.34017006799991],[-71.53613138999992,-33.35493016399994],[-71.55030658099992,-33.37217003699993],[-71.55065269599993,-33.37973889199992],[-71.54758236499993,-33.39476211099992],[-71.55458066599994,-33.39510479699993],[-71.57023866799994,-33.392616593999946],[-71.5792630329999,-33.3899680369999],[-71.58002094999995,-33.38750589499995],[-71.5860560349999,-33.38858446599994],[-71.58633200799994,-33.393801658999905],[-71.58907742199995,-33.399511134999955],[-71.58855151699993,-33.41343299299996],[-71.59127285299991,-33.41942276399993],[-71.5941635339999,-33.432014169999945],[-71.60292154199993,-33.43367869699995],[-71.60514580999995,-33.43654750499991],[-71.61003526999991,-33.43773153299992],[-71.61631551199991,-33.441729909999935],[-71.6164291529999,-33.446293314999934],[-71.60605470599995,-33.453159274999905],[-71.6021784429999,-33.453147378999915],[-71.59791487699994,-33.45657919799993],[-71.5950636259999,-33.456582932999936],[-71.59419258499992,-33.46071683799994],[-71.59234245199991,-33.46142553799996],[-71.58586322999992,-33.46032304999994],[-71.58183144199995,-33.46256344899996],[-71.57354129599992,-33.45796489599991],[-71.56198599899994,-33.46036327699994],[-71.5490018129999,-33.458304694999924],[-71.54085111299992,-33.45839741899994],[-71.53856235299992,-33.460839463999946],[-71.5360755719999,-33.46096195799993],[-71.53491319299991,-33.45846410099995],[-71.53038116399995,-33.460887543999945],[-71.52969737299992,-33.46331091299993],[-71.52478827899995,-33.46578467699993],[-71.5211676799999,-33.465584071999956],[-71.52010295199995,-33.468623462999915],[-71.51337275799995,-33.46719764599993],[-71.51210056999992,-33.468976837999946],[-71.51275938599991,-33.47355567899996],[-71.51160720599995,-33.47505809199993],[-71.50584388499993,-33.47361226999993],[-71.50137437099994,-33.476174327999956],[-71.49756489499993,-33.47309547799995],[-71.49154281799991,-33.47521474899992],[-71.48629788199992,-33.47179094499995],[-71.48488440099993,-33.47336644099994],[-71.4855967869999,-33.47688720499991],[-71.4835566619999,-33.478792272999954],[-71.47987885499992,-33.472498472999916],[-71.47265302399995,-33.478623575999904],[-71.47099517399994,-33.48160966799992],[-71.45962026799992,-33.48590251899992],[-71.45738798299993,-33.48800425999991],[-71.45272772299995,-33.48733014399994],[-71.44799113599993,-33.48873093099991],[-71.44095585299993,-33.48740247299992],[-71.4378804509999,-33.48907559299994],[-71.43424193399994,-33.48740438199991],[-71.43550468199993,-33.48207961999992],[-71.43383417899992,-33.481737273999954],[-71.43133111499992,-33.47770634299991],[-71.42370502199992,-33.47474218799994],[-71.41183000199993,-33.47445742299993],[-71.40773471099993,-33.468687520999936],[-71.40731948699994,-33.46468112899993],[-71.40060392599992,-33.4619575989999],[-71.39161762099991,-33.45451252799995],[-71.38640698499995,-33.45550400499991],[-71.38335677399994,-33.457757976999915],[-71.37890855299992,-33.456216371999915],[-71.37296760899994,-33.45607040099992],[-71.36808564599994,-33.45317311799994],[-71.36110601699994,-33.45130430499995],[-71.35484368599992,-33.452392103999955],[-71.3527853729999,-33.45130032599991],[-71.34081451299994,-33.45380335899995],[-71.33832429999995,-33.45237012599995],[-71.33728699599993,-33.44157373999991],[-71.3403515249999,-33.43877467599992],[-71.34340652399993,-33.430864862999954],[-71.34128694599991,-33.42744786599991],[-71.34369213699995,-33.42267493999992],[-71.34254345099993,-33.41575942399993],[-71.33372880499991,-33.41276186299996],[-71.33137058299991,-33.407888603999936],[-71.32637759199991,-33.40693616999994],[-71.3240185539999,-33.40972886399993],[-71.31498789799991,-33.41064861199993],[-71.30597293599993,-33.40932638499993],[-71.29829292399995,-33.41301105799994],[-71.29562918799991,-33.411473180999906],[-71.28227076399992,-33.41030364699992],[-71.27837392099991,-33.405368567999915],[-71.27576311999991,-33.40408699999995],[-71.27719707299991,-33.402070814999945],[-71.27675987599991,-33.400264259999915],[-71.26822280399995,-33.39412317299991],[-71.26651950599995,-33.38747125099991],[-71.25525693499992,-33.38339499099993],[-71.2438472309999,-33.38373005299991],[-71.24333209899993,-33.38176389699993],[-71.23643376399991,-33.37442503999995],[-71.23219549099991,-33.37522780199993],[-71.22312717799991,-33.373060756999905],[-71.22306561799991,-33.369616410999924],[-71.22011405299992,-33.36473209499991],[-71.22000133499995,-33.360612820999904],[-71.21419875599992,-33.35509485199992],[-71.21585984399991,-33.34873947299991],[-71.21074923799995,-33.33531650899994],[-71.21335831199991,-33.33101953399995],[-71.20568530399993,-33.330806769999924],[-71.2049669889999,-33.32094460099995],[-71.19545988699991,-33.31154131799991],[-71.19583980699991,-33.30988698999994],[-71.20116312599993,-33.31020763499993],[-71.20620606799991,-33.308464906999916],[-71.20683591099993,-33.305953279999926],[-71.21040192699991,-33.302595649999944],[-71.2146654359999,-33.29324064699995],[-71.21346826399991,-33.28716236099996],[-71.2226287439999,-33.279274020999935],[-71.22339032999992,-33.27002555899992],[-71.22702029299995,-33.26802499899992],[-71.22373062499992,-33.26592933999996],[-71.21949883499991,-33.25937455099995],[-71.22129398499993,-33.2537671149999],[-71.22574660499993,-33.24945505099993],[-71.22556627999995,-33.24659321999991],[-71.23016513199991,-33.24179363799993],[-71.23675604899995,-33.23923101799994],[-71.2443413979999,-33.239026475999935],[-71.24612023599991,-33.235502166999936],[-71.25238334799991,-33.23179746099993],[-71.25492777999995,-33.23379478299995],[-71.26080483099992,-33.233261452999955],[-71.26524006999995,-33.22838625599991],[-71.26733181799995,-33.22315955199991],[-71.27319661999991,-33.223163008999904],[-71.2745055979999,-33.21884527199995],[-71.28152186799991,-33.21490568999991],[-71.28576395099992,-33.21534539899994],[-71.28774387599992,-33.21419999099993],[-71.2917439069999,-33.217592699999955],[-71.29477177399991,-33.21671412399991],[-71.2981068979999,-33.20928493899993],[-71.3064889609999,-33.20330194199994],[-71.3095736269999,-33.20402204299995],[-71.31212117899992,-33.202237924999906],[-71.31754402099995,-33.201142226999934],[-71.32415279599991,-33.20324946799991],[-71.3328011509999,-33.19978639999994],[-71.34189308999993,-33.201363639999954],[-71.34581228399992,-33.20413425999993],[-71.34460399199992,-33.20059231399995],[-71.3502172119999,-33.19068834299992],[-71.3587633809999,-33.18663115599992],[-71.36023878099991,-33.18258915799993],[-71.36613535499993,-33.179318004999914],[-71.36754895099995,-33.175773749999905],[-71.37031105099993,-33.17849722199992],[-71.37703565699991,-33.18005507299995],[-71.38070242499992,-33.1837246579999],[-71.38336505599995,-33.184036972999934],[-71.38755823499991,-33.19038660299992],[-71.39252041599991,-33.19326653599995],[-71.39635664299993,-33.20144633399991],[-71.3998792129999,-33.20250544899994],[-71.40581367499993,-33.202058147999935],[-71.40757260999993,-33.205357713999945],[-71.40696524799995,-33.20914877999991],[-71.41079156099994,-33.2110242949999],[-71.41919830499995,-33.20565824799991],[-71.42575876299992,-33.20658499099994],[-71.43009014299992,-33.20539908699993],[-71.43578273199995,-33.20841145999992],[-71.44657175799995,-33.20375227199992],[-71.46222301499995,-33.20630537899996],[-71.46899202299994,-33.20044949399994],[-71.4717071689999,-33.201562201999934],[-71.47541453499991,-33.20566600099994],[-71.47838667999991,-33.204006130999915],[-71.48148452499993,-33.20516227199994],[-71.48555559699992,-33.209452624999926],[-71.49082345999994,-33.20957904099993],[-71.49505603699993,-33.205230023999945],[-71.49858793399994,-33.20357430799993],[-71.50167485499992,-33.20584729899991],[-71.50680502099993,-33.205359605999945],[-71.51331517799991,-33.209264204999954],[-71.51908081599993,-33.21006353899992],[-71.52074936199995,-33.212886785999956],[-71.5232208839999,-33.2093223249999],[-71.52560936499992,-33.20991483799992],[-71.52991266799995,-33.20841718199995],[-71.5369325929999,-33.213490892999914],[-71.53983646199993,-33.208009793999906],[-71.5436630559999,-33.206123989999924],[-71.54399490399993,-33.202309707999916],[-71.54922340999991,-33.200138660999926],[-71.54929233699994,-33.195793275999904],[-71.55171072699994,-33.19074200299991],[-71.55860390299995,-33.190792711999904],[-71.55920358399993,-33.1888702249999],[-71.56556617799993,-33.18850841299991],[-71.5690755089999,-33.18598741299991],[-71.5761035399999,-33.18935468899991],[-71.58102016799995,-33.189598908999926],[-71.59057657399995,-33.18172127099996],[-71.59190599199991,-33.17716823099994],[-71.59684128399994,-33.17600128799995],[-71.60094131999995,-33.17185181399992],[-71.60253827799994,-33.169151933999956],[-71.60249419899992,-33.16611459399991],[-71.6111431459999,-33.166018351999924],[-71.61977618899994,-33.16205800599994],[-71.62271186299995,-33.15892139999994],[-71.62436592899991,-33.15975114199995],[-71.62977576299994,-33.15834704899993],[-71.63193501499995,-33.15945201799991],[-71.63573029699995,-33.15771356199991],[-71.6386455029999,-33.15952108499994],[-71.6402663579999,-33.15828754499995],[-71.65074384999991,-33.164673654999945],[-71.65612275599995,-33.16650567999994],[-71.6588299419999,-33.16331024699991],[-71.66346722799994,-33.16087864599996],[-71.68424474999995,-33.15680318999995],[-71.68720891099991,-33.15833737199995],[-71.69487953299995,-33.15580056999994]]]}},{"type":"Feature","properties":{"cut":5103,"comuna":"CONCÓN"},"geometry":{"type":"Polygon","coordinates":[[[-71.50312177199993,-32.91384303499996],[-71.50646542899995,-32.91598559799991],[-71.50863069899992,-32.91547916499991],[-71.51479336199992,-32.920079493999935],[-71.51888095399994,-32.917862475999925],[-71.52296856299995,-32.917867541999954],[-71.52527915199994,-32.923947374999955],[-71.53348314199991,-32.93042098399991],[-71.53852191899995,-32.93037638099992],[-71.53790017099993,-32.92939959899991],[-71.54122777999993,-32.92906125299993],[-71.54015023999995,-32.92853756399995],[-71.54200530399993,-32.92758190999996],[-71.5395745319999,-32.9279072729999],[-71.5435781729999,-32.92665974899995],[-71.54538978999994,-32.92645170399993],[-71.54600630999994,-32.928139348999935],[-71.55092445899993,-32.92819616199995],[-71.55200924099995,-32.92968449499995],[-71.54981172099991,-32.93536803099994],[-71.55327168399992,-32.93824754199994],[-71.55295678499994,-32.94080293299993],[-71.55439352299993,-32.94062396399994],[-71.55472374399994,-32.94212580499993],[-71.5531390779999,-32.94179853599991],[-71.55076580999992,-32.945764709999935],[-71.54641248899992,-32.944837083999914],[-71.54508095299991,-32.94914072599994],[-71.53876423699995,-32.949050205999924],[-71.53864695399994,-32.951284201999954],[-71.50934197499993,-32.96041244499992],[-71.47596557199995,-32.980068409999944],[-71.47586988799992,-32.98321714399992],[-71.4708254329999,-32.98362664399991],[-71.46891634699995,-32.98540808699994],[-71.46661875399991,-32.98466938899992],[-71.4613955609999,-32.98570109599996],[-71.45755916299993,-32.98906800099991],[-71.45032328699995,-32.992594453999914],[-71.44276014999991,-33.00203034599991],[-71.4358240649999,-33.00202387099995],[-71.43387757599993,-33.000990319999914],[-71.43432377399995,-32.99343766699991],[-71.43063644199992,-32.99021981499993],[-71.43020189499993,-32.9863327029999],[-71.42823982499993,-32.984551697999905],[-71.42414377299991,-32.97567245899995],[-71.41680470799992,-32.976494962999936],[-71.41361231899992,-32.974969536999936],[-71.40649659399992,-32.97557180299992],[-71.40299095899991,-32.974162307999904],[-71.39465556999994,-32.97407108899995],[-71.38741469399992,-32.969944176999945],[-71.38626156299995,-32.96682174599994],[-71.3875324359999,-32.966622310999924],[-71.39012571899991,-32.96080118899994],[-71.39303692399994,-32.96253241099993],[-71.40248526899995,-32.95283645399991],[-71.39976821899995,-32.95070773799995],[-71.40297780999992,-32.94783157699993],[-71.40332317799994,-32.942439373999946],[-71.40824178499992,-32.938285435999944],[-71.40787305799995,-32.93546624299995],[-71.4090726789999,-32.93424161299993],[-71.41318162099992,-32.93298243399994],[-71.41703862299994,-32.93442611499995],[-71.41761755699991,-32.94079055499992],[-71.42015843899992,-32.941541033999954],[-71.42856653899992,-32.937932116999946],[-71.4291060669999,-32.935478891999935],[-71.42653454799995,-32.932978789999936],[-71.4290217109999,-32.931356009999945],[-71.43225046999993,-32.93062604499994],[-71.43741465799991,-32.93316276799993],[-71.43995851999995,-32.93293944099992],[-71.4383636739999,-32.93217426299992],[-71.4430615679999,-32.923130519999916],[-71.45025611699992,-32.92328620399991],[-71.45876835099995,-32.919679078999934],[-71.4610832429999,-32.91995832999993],[-71.46446656499995,-32.917586755999935],[-71.48185321599993,-32.920389954999905],[-71.48823448099995,-32.92005274399992],[-71.49150116599992,-32.91808931299994],[-71.49629580299995,-32.91768157899992],[-71.50312177199993,-32.91384303499996]]]}},{"type":"Feature","properties":{"cut":5107,"comuna":"QUINTERO"},"geometry":{"type":"Polygon","coordinates":[[[-71.53460724899992,-32.76494375499993],[-71.53803307299995,-32.76585053799994],[-71.53788460999994,-32.76807912899994],[-71.54117467999993,-32.77276075899994],[-71.53919025099992,-32.775947327999916],[-71.53492494099993,-32.778052319999915],[-71.53374225199991,-32.782461947999934],[-71.53713186599992,-32.78290465199996],[-71.53814858399994,-32.78447436999994],[-71.54267557599991,-32.782922468999914],[-71.54262498899993,-32.78457658199994],[-71.54394215799994,-32.784656491999954],[-71.54303704799992,-32.78640695599995],[-71.5439199459999,-32.79049895599991],[-71.54634405399992,-32.79466455699992],[-71.54518313499995,-32.799498000999904],[-71.54681481799992,-32.80238377699993],[-71.54634322999993,-32.808199689999924],[-71.54812998699992,-32.808890238999936],[-71.54324453599992,-32.815896342999906],[-71.54087939399994,-32.823125475999916],[-71.5384815619999,-32.8262398249999],[-71.53611503999991,-32.82598961499991],[-71.53632222599992,-32.82781050299991],[-71.53022460699992,-32.83000957199994],[-71.52902697399992,-32.829628215999946],[-71.52908921999995,-32.82783764799996],[-71.5255164639999,-32.828398912999944],[-71.52272718199993,-32.830685874999915],[-71.52054818699992,-32.835572863999914],[-71.51622492699994,-32.84860261399996],[-71.51443955399992,-32.864456041999915],[-71.51077394999993,-32.875313287999916],[-71.51029589199993,-32.87991544999994],[-71.51344045999991,-32.88864373699994],[-71.50880397899994,-32.893186305999905],[-71.50766097099995,-32.89627490299995],[-71.50672834599993,-32.90432163499992],[-71.5082121449999,-32.914476506999904],[-71.50646542899995,-32.91598559799991],[-71.50182988099994,-32.91385030199996],[-71.49629580299995,-32.91768157899992],[-71.49150116599992,-32.91808931299994],[-71.48823448099995,-32.92005274399992],[-71.48185321599993,-32.920389954999905],[-71.46446656499995,-32.917586755999935],[-71.4610832429999,-32.91995832999993],[-71.45876835099995,-32.919679078999934],[-71.45025611699992,-32.92328620399991],[-71.4430615679999,-32.923130519999916],[-71.44293281099993,-32.91633966499995],[-71.43845527299993,-32.915210388999924],[-71.44143723199994,-32.91173296199992],[-71.43924931799995,-32.90776041499993],[-71.44426576799992,-32.90482802699995],[-71.45043270499991,-32.89668389099995],[-71.45262787799993,-32.89088409899995],[-71.43610864699991,-32.89293306099995],[-71.43003180599993,-32.88146143499995],[-71.42120552699993,-32.88010928199992],[-71.41690468899992,-32.87419502699993],[-71.4043268659999,-32.87093594499993],[-71.40180347299992,-32.868857877999915],[-71.40170773999995,-32.86387987099994],[-71.40024376999992,-32.862530800999934],[-71.3902979149999,-32.85913887599992],[-71.38808771599992,-32.85666401099991],[-71.38919868099993,-32.852473484999905],[-71.39098937699993,-32.85103806299992],[-71.40062366199993,-32.85191525499994],[-71.4163499789999,-32.85105000099992],[-71.4215831919999,-32.84232767199995],[-71.41860307899992,-32.83777626999995],[-71.41902400799995,-32.83450751299995],[-71.41529282199991,-32.830159859999924],[-71.41285148999992,-32.82485559799994],[-71.41393203199993,-32.82092581199993],[-71.4113902659999,-32.813194231999944],[-71.41341686699991,-32.81064214399993],[-71.41308776699992,-32.80816328699996],[-71.41555078599993,-32.80660545399991],[-71.41443802499992,-32.805460370999924],[-71.41616913399992,-32.80111634599996],[-71.42193739399994,-32.80315216799994],[-71.42297178299992,-32.80140880999994],[-71.42533987599995,-32.80219226899993],[-71.4224659759999,-32.80045906499993],[-71.42751093299995,-32.79710389599995],[-71.4165205779999,-32.78492790799993],[-71.43215561999995,-32.78283111499991],[-71.4391447719999,-32.779447432999916],[-71.44053290999994,-32.78093706799996],[-71.45238957799995,-32.7801748089999],[-71.46460230199995,-32.800915510999914],[-71.48615715199992,-32.78540318599994],[-71.48373463099995,-32.78229111199994],[-71.48171373499991,-32.77503815299991],[-71.47488960399994,-32.7665034069999],[-71.48118206299995,-32.76629143699995],[-71.48539374399991,-32.77114955999991],[-71.49074100299993,-32.77034477899991],[-71.49393384099994,-32.77414222099992],[-71.50246697499995,-32.78033424499995],[-71.5076148309999,-32.78163916799991],[-71.50877973899992,-32.78060591399992],[-71.51014224099993,-32.78264378599994],[-71.51591603999992,-32.78397773599994],[-71.52597116499993,-32.78174741899994],[-71.5267377749999,-32.779417620999936],[-71.52531181299992,-32.77514183399995],[-71.52653428999992,-32.775886956999955],[-71.52710790499992,-32.774615697999934],[-71.52481181899992,-32.77383317399995],[-71.52793387799994,-32.770788514999936],[-71.52803536999994,-32.76887892099995],[-71.52991030399994,-32.76936005999994],[-71.53113809999991,-32.76705322099991],[-71.53364176799994,-32.76677535399995],[-71.53460724899992,-32.76494375499993]]]}},{"type":"Feature","properties":{"cut":5109,"comuna":"VIÑA DEL MAR"},"geometry":{"type":"Polygon","coordinates":[[[-71.54641248899992,-32.944837083999914],[-71.55076580999992,-32.945764709999935],[-71.54876451199993,-32.947989468999936],[-71.54912939999991,-32.94991097999991],[-71.5469705829999,-32.95398652999995],[-71.5498616779999,-32.95666419799994],[-71.5502592329999,-32.95533611299993],[-71.55184226999995,-32.957692305999956],[-71.5501749899999,-32.95769670999994],[-71.54766523799992,-32.96109082999993],[-71.54569464299993,-32.97327409299993],[-71.54590326199991,-32.97841272599993],[-71.54892848199995,-32.981801323999946],[-71.54768251299993,-32.98470689499993],[-71.5485767639999,-32.98604475199994],[-71.54669337899992,-32.98776239099993],[-71.54749181599993,-32.98997602299994],[-71.54961083899991,-32.990732076999905],[-71.54849374699995,-32.991678029999946],[-71.54901055199991,-32.99629449799994],[-71.55234459999991,-33.008242365999934],[-71.55630221199993,-33.01413271999991],[-71.56268409499995,-33.01933746499992],[-71.56512260999995,-33.01884975899992],[-71.5660632709999,-33.02075852999991],[-71.56834906899991,-33.02055467999992],[-71.57144904899991,-33.02474336899991],[-71.57695783199995,-33.02750960499992],[-71.58060491099991,-33.026786614999935],[-71.5815353239999,-33.025471222999954],[-71.58577682399994,-33.025359185999946],[-71.5872359949999,-33.02849616099991],[-71.58189987499992,-33.032837608999955],[-71.58206945099994,-33.037847695999915],[-71.57410789199992,-33.04353615499991],[-71.57524262699991,-33.04480726499992],[-71.57237976099992,-33.048452417999954],[-71.56477332599991,-33.05102342799995],[-71.5575235629999,-33.05096841599993],[-71.55882910899993,-33.058132746999945],[-71.55563013699992,-33.06355777099992],[-71.55668057799994,-33.06810531199994],[-71.54755339999991,-33.077562565999926],[-71.54600760799991,-33.08373035199992],[-71.54184084299993,-33.08932416199991],[-71.54244973399994,-33.09378532399995],[-71.5463997249999,-33.09665168499993],[-71.54290626499994,-33.101286468999945],[-71.54315808099994,-33.104951731999904],[-71.53750005599994,-33.104362858999934],[-71.53397661699995,-33.102642156999934],[-71.5272079369999,-33.103096329999914],[-71.51918700499994,-33.097639416999925],[-71.51117693099991,-33.09882249499992],[-71.50497724999991,-33.09478943799991],[-71.49786770799994,-33.10157357499992],[-71.49302081899992,-33.10398464299993],[-71.4936947729999,-33.098455387999934],[-71.49119303099991,-33.097043571999905],[-71.4870725799999,-33.088773905999915],[-71.48001189299993,-33.088839899999925],[-71.47656842899994,-33.08470465799991],[-71.47441457199994,-33.075195066999925],[-71.47137101999994,-33.07209796799992],[-71.47179556999993,-33.07011596099994],[-71.4695115479999,-33.06589864999995],[-71.4770763489999,-33.06606731399995],[-71.47878674099991,-33.06393774999992],[-71.48576917799994,-33.060307275999946],[-71.4876400899999,-33.05696672599993],[-71.48899513999993,-33.053662095999925],[-71.4866810179999,-33.05272034899991],[-71.48665389799993,-33.049072623999905],[-71.48458908499993,-33.049002927999936],[-71.48476427599991,-33.03578489799992],[-71.48222137699992,-33.034880150999925],[-71.47546513099991,-33.024858743999914],[-71.47031999899991,-33.020779999999945],[-71.47044278599992,-33.014758126999936],[-71.45217852799993,-33.01935983799996],[-71.45167166999994,-33.01522108499995],[-71.4451783529999,-33.012679989999924],[-71.4443483419999,-33.008824939999954],[-71.44535535299991,-33.00603206199992],[-71.4427995289999,-33.00173627699991],[-71.45032328699995,-32.992594453999914],[-71.45755916299993,-32.98906800099991],[-71.4613955609999,-32.98570109599996],[-71.46661875399991,-32.98466938899992],[-71.46891634699995,-32.98540808699994],[-71.4708254329999,-32.98362664399991],[-71.47586988799992,-32.98321714399992],[-71.47596557199995,-32.980068409999944],[-71.50934197499993,-32.96041244499992],[-71.53864695399994,-32.951284201999954],[-71.53876423699995,-32.949050205999924],[-71.54508095299991,-32.94914072599994],[-71.54641248899992,-32.944837083999914]]]}},{"type":"Feature","properties":{"cut":5501,"comuna":"QUILLOTA"},"geometry":{"type":"Polygon","coordinates":[[[-71.29902926799991,-32.830183493999925],[-71.30631504999991,-32.831421925999905],[-71.3140814379999,-32.83082198199992],[-71.32145883599992,-32.83301523599994],[-71.32419925599993,-32.83279314099991],[-71.32643455199991,-32.830806959999904],[-71.3326119539999,-32.837721049999914],[-71.34033501399995,-32.839551695999944],[-71.34712173499992,-32.839376176999906],[-71.3502430929999,-32.84122037199995],[-71.35178398999994,-32.84732656299991],[-71.3580992389999,-32.85641649299993],[-71.3651805149999,-32.85758718799991],[-71.36920656399991,-32.861456190999945],[-71.3732144679999,-32.862673052999924],[-71.38287705199991,-32.85681523699992],[-71.38809826699992,-32.85668235299994],[-71.3902979149999,-32.85913887599992],[-71.40024376999992,-32.862530800999934],[-71.40170773999995,-32.86387987099994],[-71.40180347299992,-32.868857877999915],[-71.4043268659999,-32.87093594499993],[-71.41690468899992,-32.87419502699993],[-71.42120552699993,-32.88010928199992],[-71.43003180599993,-32.88146143499995],[-71.43610864699991,-32.89293306099995],[-71.45262787799993,-32.89088409899995],[-71.45043270499991,-32.89668389099995],[-71.44426576799992,-32.90482802699995],[-71.43924931799995,-32.90776041499993],[-71.44143723199994,-32.91173296199992],[-71.43845527299993,-32.915210388999924],[-71.44293281099993,-32.91633966499995],[-71.44379953499993,-32.92174838099993],[-71.4429495249999,-32.9233402829999],[-71.43116548899991,-32.918065859999956],[-71.4233008249999,-32.91738187799996],[-71.4185362529999,-32.91884607199995],[-71.3955493599999,-32.91936231699992],[-71.39036673699991,-32.92198530499991],[-71.3848864119999,-32.91953048799991],[-71.38117054599991,-32.920553182999925],[-71.37638298399992,-32.917348827999945],[-71.36939456899995,-32.918440296999904],[-71.3652884839999,-32.919697466999935],[-71.36186566099991,-32.92316694099992],[-71.36213704199992,-32.92501127399993],[-71.35789707999993,-32.92738341799992],[-71.35342134099994,-32.92623596899995],[-71.34806813299991,-32.930248185999915],[-71.3440114679999,-32.92988875399993],[-71.34645340199995,-32.93650453299995],[-71.34625401399995,-32.939546831999905],[-71.33927806299994,-32.94467317099992],[-71.3373432429999,-32.948331528999915],[-71.33024668399992,-32.95182082699995],[-71.3233471229999,-32.95138994799993],[-71.31444840799992,-32.95305372099995],[-71.30945437199995,-32.95178086499993],[-71.29334089699995,-32.96154020799992],[-71.28898418799992,-32.96017490699995],[-71.28126294599991,-32.96091786699992],[-71.27192222899993,-32.964120618999914],[-71.26704166999991,-32.96743406899992],[-71.25727187399991,-32.96924870899994],[-71.25293397599995,-32.97239763999994],[-71.2478694749999,-32.97232890999993],[-71.2461879029999,-32.97339937399994],[-71.23290300399992,-32.973284307999904],[-71.22836788199993,-32.97161834299993],[-71.2174808929999,-32.97207683399995],[-71.2142707889999,-32.97335338999994],[-71.21180269799993,-32.97145634099991],[-71.20117939699992,-32.97154149599993],[-71.1987345089999,-32.97021927499992],[-71.19024839499991,-32.97187212099993],[-71.18278631899994,-32.97134083599991],[-71.17302814199991,-32.96865870999994],[-71.16595966799991,-32.971562552999956],[-71.15777229899993,-32.971955703999924],[-71.15484996999993,-32.97320234299991],[-71.1505851359999,-32.9702792729999],[-71.1466299729999,-32.97053678499992],[-71.14402130499991,-32.96837557199996],[-71.14032837299993,-32.9684763809999],[-71.13763224999991,-32.9664285689999],[-71.13507766099991,-32.966355251999914],[-71.12675874899992,-32.96030297599992],[-71.12512142599991,-32.956439676999935],[-71.11988483199991,-32.953966806999915],[-71.12104952199991,-32.94873063099993],[-71.12505498599995,-32.948718208999935],[-71.13249249299992,-32.944063473999904],[-71.14265796199993,-32.941226539999946],[-71.14470713599991,-32.934037582999906],[-71.15187144999993,-32.929098790999944],[-71.14529244199991,-32.91544250599992],[-71.14644379799995,-32.90845449799991],[-71.14576836599991,-32.905079402999945],[-71.14383567099992,-32.903386748999935],[-71.1459500439999,-32.89380168099996],[-71.1434112039999,-32.88743166099994],[-71.14751971099992,-32.87755269099995],[-71.14548119299991,-32.8672653239999],[-71.15053986799995,-32.865340433999904],[-71.16607278499993,-32.862869523999905],[-71.16877080099994,-32.86675091299992],[-71.1795379589999,-32.86571573599991],[-71.18198065099995,-32.86962244199992],[-71.1849517839999,-32.86936835499995],[-71.20052316999994,-32.86347303699995],[-71.20089980499995,-32.86179258699991],[-71.20546949599992,-32.859245080999926],[-71.21823958499994,-32.859880293999936],[-71.23534093799992,-32.85670603999995],[-71.23504203199991,-32.855624743999954],[-71.24059824199992,-32.853825479999955],[-71.23923489799995,-32.848412201999906],[-71.24045018699991,-32.84075358799993],[-71.26380894199991,-32.840831162999905],[-71.26732976199992,-32.834384248999925],[-71.27902196799994,-32.83655839399995],[-71.29902926799991,-32.830183493999925]]]}},{"type":"Feature","properties":{"cut":5801,"comuna":"QUILPUÉ"},"geometry":{"type":"Polygon","coordinates":[[[-71.43370595199991,-33.00068614499992],[-71.4358240649999,-33.00202387099995],[-71.44254824799992,-33.001832291999904],[-71.44535535299991,-33.00603206199992],[-71.4443483419999,-33.008824939999954],[-71.4451783529999,-33.012679989999924],[-71.45167166999994,-33.01522108499995],[-71.45217852799993,-33.01935983799996],[-71.47044278599992,-33.014758126999936],[-71.47031999899991,-33.020779999999945],[-71.47546513099991,-33.024858743999914],[-71.47690108099994,-33.02815312899992],[-71.47974055999993,-33.03006327199995],[-71.47998983199994,-33.03251236199992],[-71.48222137699992,-33.034880150999925],[-71.4842718889999,-33.03488340999991],[-71.48526512399991,-33.036816331999944],[-71.48389473899994,-33.04240524799991],[-71.48458908499993,-33.049002927999936],[-71.48665389799993,-33.049072623999905],[-71.4866810179999,-33.05272034899991],[-71.4890228939999,-33.05396489499992],[-71.48599301599995,-33.06001879099995],[-71.47686253899991,-33.06615094199992],[-71.4695115479999,-33.06589864999995],[-71.47179556999993,-33.07011596099994],[-71.47137101999994,-33.07209796799992],[-71.47423142299994,-33.074726331999955],[-71.47523289199995,-33.08154388899993],[-71.47849092199993,-33.087610671999926],[-71.48001189299993,-33.088839899999925],[-71.4870725799999,-33.088773905999915],[-71.49119303099991,-33.097043571999905],[-71.49340949899994,-33.097907575999955],[-71.49402475599993,-33.10088279899992],[-71.49113734499991,-33.10630257199995],[-71.48609144699992,-33.109078723999914],[-71.47872712599991,-33.117032423999945],[-71.48735771899993,-33.122894353999925],[-71.48891115499993,-33.12676574999995],[-71.48338222699994,-33.131263274999924],[-71.47829293799992,-33.13083714699991],[-71.48021544199992,-33.13506915699992],[-71.47744821999993,-33.14548604799995],[-71.47529273299995,-33.14616475199995],[-71.46806927499995,-33.15309938099995],[-71.4598065159999,-33.155599458999916],[-71.45391067599991,-33.15410625499993],[-71.45150579599994,-33.15815438599992],[-71.44686423499991,-33.15952658799995],[-71.44512749199993,-33.16284171099994],[-71.42942032899992,-33.162173251999945],[-71.4237880949999,-33.16600614099991],[-71.41833278199994,-33.16699783899992],[-71.41277383399995,-33.172316362999936],[-71.40748895399992,-33.17131876299993],[-71.40222502199993,-33.173811293999904],[-71.3943067319999,-33.173654065999926],[-71.3909756079999,-33.17786856399994],[-71.39082091599994,-33.18041327699996],[-71.3863716649999,-33.180269971999905],[-71.38300478499991,-33.18376717499996],[-71.38070242499992,-33.1837246579999],[-71.37703565699991,-33.18005507299995],[-71.37031105099993,-33.17849722199992],[-71.36754895099995,-33.175773749999905],[-71.36613535499993,-33.179318004999914],[-71.36023878099991,-33.18258915799993],[-71.3587633809999,-33.18663115599992],[-71.3502172119999,-33.19068834299992],[-71.34460399199992,-33.20059231399995],[-71.34581228399992,-33.20413425999993],[-71.34189308999993,-33.201363639999954],[-71.3328011509999,-33.19978639999994],[-71.32415279599991,-33.20324946799991],[-71.31754402099995,-33.201142226999934],[-71.31212117899992,-33.202237924999906],[-71.3095736269999,-33.20402204299995],[-71.3064889609999,-33.20330194199994],[-71.2981068979999,-33.20928493899993],[-71.29477177399991,-33.21671412399991],[-71.2917439069999,-33.217592699999955],[-71.28774387599992,-33.21419999099993],[-71.27679479999995,-33.21678351899993],[-71.2745055979999,-33.21884527199995],[-71.27319661999991,-33.223163008999904],[-71.26733181799995,-33.22315955199991],[-71.26524006999995,-33.22838625599991],[-71.26080483099992,-33.233261452999955],[-71.25492777999995,-33.23379478299995],[-71.25238334799991,-33.23179746099993],[-71.24612023599991,-33.235502166999936],[-71.2443413979999,-33.239026475999935],[-71.23675604899995,-33.23923101799994],[-71.23077729399995,-33.241391267999916],[-71.22556627999995,-33.24659321999991],[-71.22184707399992,-33.240666880999925],[-71.21546378799991,-33.23911625099993],[-71.21613487699994,-33.234450428999935],[-71.21075999899995,-33.231679999999926],[-71.20501749199991,-33.23156398099991],[-71.19941001199993,-33.22811818999992],[-71.19553119199992,-33.22845000199993],[-71.1898980389999,-33.22666458999993],[-71.17909579899992,-33.22797266999993],[-71.17206685199994,-33.23078872199994],[-71.16599934699991,-33.22956625699993],[-71.1642873699999,-33.22639796199991],[-71.16244296699995,-33.225508609999906],[-71.15075577399995,-33.22953168299995],[-71.14877706199991,-33.23246184899995],[-71.14023890199991,-33.237653104999936],[-71.1198908149999,-33.231044536999946],[-71.11524894599995,-33.226051071999905],[-71.11381919999991,-33.222551137999915],[-71.1092416699999,-33.22043372099995],[-71.09675732599993,-33.22060986699995],[-71.09389687799995,-33.21944759599995],[-71.08210894299992,-33.22491279099995],[-71.07424374099992,-33.23076384099994],[-71.06076217799995,-33.22621854699992],[-71.05980730699991,-33.22261103699992],[-71.06043055799995,-33.21492154799995],[-71.05836249499993,-33.21146767399995],[-71.0570015699999,-33.20450847799992],[-71.05280696499995,-33.205217648999906],[-71.04758634199993,-33.21007554199991],[-71.0441279499999,-33.209731192999925],[-71.04065199299993,-33.20670081499992],[-71.0326872999999,-33.21076769599995],[-71.03351116399995,-33.214065095999956],[-71.03205495599991,-33.215537000999916],[-71.0274233419999,-33.21655144999994],[-71.02582669399993,-33.214981991999935],[-71.02613933799995,-33.21113967999992],[-71.02916250299995,-33.205743957999914],[-71.02684440599995,-33.20170039899995],[-71.02162919699992,-33.20147837299993],[-71.01750281099993,-33.203385048999905],[-71.0153798149999,-33.1999309869999],[-71.00575601699995,-33.19798760799995],[-70.9973439549999,-33.197908328999915],[-70.99824261299995,-33.192131952999944],[-70.99265766699995,-33.18217335399993],[-70.99368638599992,-33.179647237999916],[-70.99038462499993,-33.17847599299995],[-70.98964223299993,-33.17670567399995],[-70.9944716139999,-33.17284717599995],[-70.99515599999995,-33.169771057999924],[-71.00414174299993,-33.15870365999996],[-71.00471849799993,-33.15397706299996],[-71.00891494199993,-33.155396208999946],[-71.01087799699991,-33.15435519499994],[-71.01321459099995,-33.141974483999945],[-71.01286904699992,-33.13151035099992],[-71.01966032999991,-33.11825298799994],[-71.02005167499993,-33.10967269699995],[-71.01472394099994,-33.09569536099991],[-71.02262854199995,-33.08777993699994],[-71.0297718729999,-33.08415560199995],[-71.0322922439999,-33.092715212999906],[-71.03897165399991,-33.09738489499995],[-71.0545487629999,-33.098657157999924],[-71.06262799299992,-33.102001370999915],[-71.06622039399991,-33.10034211099992],[-71.0695905469999,-33.09667346999993],[-71.07168498699991,-33.09644227799993],[-71.07987306799993,-33.100675474999946],[-71.0830517359999,-33.103952757999934],[-71.1049246629999,-33.11365290599991],[-71.1101869709999,-33.118674695999914],[-71.12149298599991,-33.11474466799996],[-71.12557793099995,-33.11913698299992],[-71.13608145799992,-33.121041102999925],[-71.1379503629999,-33.125535864999904],[-71.13590591899992,-33.13717714099994],[-71.14848470399994,-33.13775646199991],[-71.15329837299993,-33.14338792199993],[-71.15646596899995,-33.14387122599993],[-71.1665747859999,-33.141918905999944],[-71.18157766599995,-33.14286861799991],[-71.17917517199993,-33.149000143999956],[-71.18734805799994,-33.15125497199995],[-71.19022038699995,-33.15903373799995],[-71.19425832899992,-33.16143298399993],[-71.19737541099994,-33.16169151999992],[-71.20022731499995,-33.15427159699993],[-71.20676392399992,-33.147657985999956],[-71.20945906999992,-33.14309891399995],[-71.21719303099991,-33.13941855999991],[-71.2245572889999,-33.14120587399992],[-71.22932109399994,-33.139755315999935],[-71.23119649699993,-33.14226233699992],[-71.2360069849999,-33.143949059999954],[-71.23749706099994,-33.14107068399994],[-71.24457468199995,-33.13597481799991],[-71.24811935999992,-33.130606299999954],[-71.26737695999992,-33.11665579599992],[-71.26934472999994,-33.118095739999944],[-71.2737706289999,-33.11696272699993],[-71.27597874199995,-33.12017850399991],[-71.28250962999994,-33.121170788999905],[-71.29966691999994,-33.11743618399993],[-71.30105828599994,-33.12036973699992],[-71.30524385599995,-33.12026371099995],[-71.3105561989999,-33.11852838699991],[-71.3217795299999,-33.10831980499995],[-71.32539644499991,-33.10748749499993],[-71.32789045699991,-33.10927470899992],[-71.3329934859999,-33.10894780599995],[-71.34178608499991,-33.10285063199996],[-71.35860677399995,-33.098219583999935],[-71.36125955299991,-33.094983715999945],[-71.36607219799993,-33.09336388199995],[-71.36647743799995,-33.08640411999994],[-71.37100320699994,-33.08241329099991],[-71.36985864099995,-33.08030223399993],[-71.37185283199995,-33.07960610899994],[-71.37583148099992,-33.08192793099994],[-71.37933482999995,-33.07451170399992],[-71.38744842599993,-33.074088812999946],[-71.39210114499991,-33.070620310999914],[-71.39638622099994,-33.069770124999934],[-71.39780706699992,-33.068532829999924],[-71.3975321609999,-33.066647202999945],[-71.4000429749999,-33.066325365999944],[-71.39830415499995,-33.04610105899991],[-71.39979665099992,-33.045841942999914],[-71.39872225399995,-33.01311402999994],[-71.40051088199994,-33.013422749999904],[-71.4035372269999,-33.01095165999993],[-71.40709202999994,-33.01174546999994],[-71.41043958699993,-33.01007426099994],[-71.42375159599993,-33.00826292699992],[-71.42667011399993,-33.00322997599994],[-71.43370595199991,-33.00068614499992]]]}},{"type":"Feature","properties":{"cut":5802,"comuna":"LIMACHE"},"geometry":{"type":"Polygon","coordinates":[[[-71.37620053899991,-32.91732562799996],[-71.38117054599991,-32.920553182999925],[-71.3848864119999,-32.91953048799991],[-71.39036673699991,-32.92198530499991],[-71.3955493599999,-32.91936231699992],[-71.4185362529999,-32.91884607199995],[-71.4233008249999,-32.91738187799996],[-71.43116548899991,-32.918065859999956],[-71.4429495249999,-32.9233402829999],[-71.4383636739999,-32.93217426299992],[-71.43995851999995,-32.93293944099992],[-71.43741465799991,-32.93316276799993],[-71.43225046999993,-32.93062604499994],[-71.42732323899992,-32.93211842899996],[-71.42658813299994,-32.93339581999993],[-71.42899041999993,-32.935225990999925],[-71.42921981199993,-32.93689633899993],[-71.42542633699992,-32.94000193099993],[-71.41878476399995,-32.94165960999993],[-71.41761755699991,-32.94079055499992],[-71.41703862299994,-32.93442611499995],[-71.41318162099992,-32.93298243399994],[-71.4086886259999,-32.934477673999936],[-71.40824178499992,-32.938285435999944],[-71.40351371499992,-32.9420320559999],[-71.40297780999992,-32.94783157699993],[-71.39976821899995,-32.95070773799995],[-71.40248526899995,-32.95283645399991],[-71.39303692399994,-32.96253241099993],[-71.39012571899991,-32.96080118899994],[-71.3875324359999,-32.966622310999924],[-71.38626156299995,-32.96682174599994],[-71.38818493199994,-32.97072711499993],[-71.39465556999994,-32.97407108899995],[-71.40299095899991,-32.974162307999904],[-71.40649659399992,-32.97557180299992],[-71.41361231899992,-32.974969536999936],[-71.41680470799992,-32.976494962999936],[-71.42414377299991,-32.97567245899995],[-71.42823982499993,-32.984551697999905],[-71.43020189499993,-32.9863327029999],[-71.43063644199992,-32.99021981499993],[-71.43450872599993,-32.99393153099993],[-71.43330033199993,-33.001408633999915],[-71.42667011399993,-33.00322997599994],[-71.42302874599994,-33.00848960199994],[-71.41043958699993,-33.01007426099994],[-71.40709202999994,-33.01174546999994],[-71.4035372269999,-33.01095165999993],[-71.40051088199994,-33.013422749999904],[-71.38340307499993,-33.01414466199992],[-71.37990317999993,-33.02070231099992],[-71.37520180799993,-33.02306158499994],[-71.37409936099994,-33.02488292999993],[-71.35865571699992,-33.029115995999916],[-71.34945061199994,-33.034500915999956],[-71.34333153099993,-33.041929299999936],[-71.33933119399995,-33.04403421299992],[-71.33688665999995,-33.04143698099995],[-71.33079187699991,-33.04459594899993],[-71.32804591599995,-33.044081613999936],[-71.32771691099992,-33.03826775099992],[-71.31996372099991,-33.02836591399995],[-71.31966409799992,-33.02331880699995],[-71.2952711289999,-33.01148944599993],[-71.2930762279999,-33.01443539199994],[-71.28575869199994,-33.01869407999993],[-71.28481446099994,-33.02043239299991],[-71.2899682769999,-33.02865663199992],[-71.28587977899991,-33.034456073999934],[-71.2855321429999,-33.037614988999906],[-71.28872942799995,-33.0448319809999],[-71.28874423799994,-33.04808916199994],[-71.29038904499993,-33.0498924929999],[-71.28969980799991,-33.058662188999904],[-71.27886850199991,-33.069626745999926],[-71.27948413699994,-33.0746348049999],[-71.27694092099995,-33.08022494499994],[-71.27063019099995,-33.085402995999914],[-71.26767746699994,-33.09041553499992],[-71.25976744499991,-33.09532544199993],[-71.2567473979999,-33.100257824999915],[-71.26085537299991,-33.10847437099994],[-71.26433848599993,-33.11229253599993],[-71.2659810369999,-33.11240178199995],[-71.26720212099991,-33.117280689999916],[-71.24811935999992,-33.130606299999954],[-71.24457468199995,-33.13597481799991],[-71.23749706099994,-33.14107068399994],[-71.2362732389999,-33.14377788299993],[-71.23119649699993,-33.14226233699992],[-71.22932109399994,-33.139755315999935],[-71.22572841499994,-33.14118733799995],[-71.21537171999995,-33.139985003999925],[-71.20890627799992,-33.14355970899993],[-71.20676392399992,-33.147657985999956],[-71.20022731499995,-33.15427159699993],[-71.19784162399992,-33.16131570899995],[-71.19539759199995,-33.16175885399991],[-71.19022038699995,-33.15903373799995],[-71.18763312599992,-33.15147549199992],[-71.17917517199993,-33.149000143999956],[-71.18157766599995,-33.14286861799991],[-71.1665747859999,-33.141918905999944],[-71.15646596899995,-33.14387122599993],[-71.15329837299993,-33.14338792199993],[-71.14848470399994,-33.13775646199991],[-71.13590591899992,-33.13717714099994],[-71.1379503629999,-33.125535864999904],[-71.13608292999993,-33.12101401599995],[-71.1388462889999,-33.11678243399996],[-71.14048499299992,-33.108038774999955],[-71.14399033099994,-33.105926998999905],[-71.15177758599992,-33.10561691299995],[-71.14989865799993,-33.09803399099991],[-71.15187533099993,-33.09278770099991],[-71.15768668099992,-33.090058590999945],[-71.16553147999991,-33.08471487399993],[-71.16899514199991,-33.08081766799995],[-71.17666881199995,-33.07638703099991],[-71.17787819999995,-33.062264633999916],[-71.18346326099993,-33.055080809999936],[-71.18771290599994,-33.03970485199994],[-71.18716140099991,-33.03770013199994],[-71.19186588499991,-33.03567768599993],[-71.19096656399995,-33.03192130599996],[-71.19485873999992,-33.0267980669999],[-71.19505861899995,-33.02379355799991],[-71.2129135799999,-33.0181305129999],[-71.21308212999992,-33.01567124799993],[-71.20273513599994,-33.011696824999945],[-71.2004533779999,-33.00690625599992],[-71.22286641699992,-33.00004498599992],[-71.2202970049999,-32.99742008499993],[-71.22066059799994,-32.99351349999995],[-71.21925500399993,-32.988393953999946],[-71.22045256899992,-32.98161845499993],[-71.21782194699995,-32.979045458999906],[-71.2180866619999,-32.97528293599993],[-71.2147133169999,-32.97334531699994],[-71.2203307339999,-32.971774885999935],[-71.22937441399995,-32.97169372299993],[-71.23344203199991,-32.97332800799995],[-71.25293397599995,-32.97239763999994],[-71.25696605999991,-32.96935425699991],[-71.26704166999991,-32.96743406899992],[-71.27192222899993,-32.964120618999914],[-71.28126294599991,-32.96091786699992],[-71.28898418799992,-32.96017490699995],[-71.29334089699995,-32.96154020799992],[-71.30945437199995,-32.95178086499993],[-71.31444840799992,-32.95305372099995],[-71.3233471229999,-32.95138994799993],[-71.33024668399992,-32.95182082699995],[-71.3373432429999,-32.948331528999915],[-71.33927806299994,-32.94467317099992],[-71.34625401399995,-32.939546831999905],[-71.34645340199995,-32.93650453299995],[-71.3440114679999,-32.92988875399993],[-71.34806813299991,-32.930248185999915],[-71.35342134099994,-32.92623596899995],[-71.35789707999993,-32.92738341799992],[-71.36213704199992,-32.92501127399993],[-71.36186566099991,-32.92316694099992],[-71.36462066799993,-32.92022519199992],[-71.37620053899991,-32.91732562799996]]]}},{"type":"Feature","properties":{"cut":5803,"comuna":"OLMUÉ"},"geometry":{"type":"Polygon","coordinates":[[[-71.11988483199991,-32.953966806999915],[-71.12488120699993,-32.95625786499994],[-71.12675874899992,-32.96030297599992],[-71.13507766099991,-32.966355251999914],[-71.13763224999991,-32.9664285689999],[-71.14032837299993,-32.9684763809999],[-71.14402130499991,-32.96837557199996],[-71.1466299729999,-32.97053678499992],[-71.1505851359999,-32.9702792729999],[-71.15484996999993,-32.97320234299991],[-71.15777229899993,-32.971955703999924],[-71.16595966799991,-32.971562552999956],[-71.17302814199991,-32.96865870999994],[-71.18318682499995,-32.97139351099992],[-71.19165304499995,-32.97187864299991],[-71.1987345089999,-32.97021927499992],[-71.20117939699992,-32.97154149599993],[-71.21180269799993,-32.97145634099991],[-71.21345325699991,-32.97315667599992],[-71.21662626799991,-32.97367085199994],[-71.2154692549999,-32.97456314999994],[-71.21845845299993,-32.975871852999944],[-71.21782194699995,-32.979045458999906],[-71.22045256899992,-32.98161845499993],[-71.21925500399993,-32.988393953999946],[-71.22066059799994,-32.99351349999995],[-71.2202970049999,-32.99742008499993],[-71.22286641699992,-33.00004498599992],[-71.2004533779999,-33.00690625599992],[-71.20273513599994,-33.011696824999945],[-71.21308212999992,-33.01567124799993],[-71.2129135799999,-33.0181305129999],[-71.19505861899995,-33.02379355799991],[-71.19485873999992,-33.0267980669999],[-71.19096656399995,-33.03192130599996],[-71.19186588499991,-33.03567768599993],[-71.18716140099991,-33.03770013199994],[-71.18771290599994,-33.03970485199994],[-71.18346326099993,-33.055080809999936],[-71.17787819999995,-33.062264633999916],[-71.17666881199995,-33.07638703099991],[-71.16899514199991,-33.08081766799995],[-71.16553147999991,-33.08471487399993],[-71.15768668099992,-33.090058590999945],[-71.15187533099993,-33.09278770099991],[-71.14989865799993,-33.09803399099991],[-71.15177758599992,-33.10561691299995],[-71.14399033099994,-33.105926998999905],[-71.14098912199995,-33.107425932999945],[-71.13953348599995,-33.10972788499993],[-71.1388462889999,-33.11678243399996],[-71.13608145799992,-33.121041102999925],[-71.12557793099995,-33.11913698299992],[-71.12149298599991,-33.11474466799996],[-71.1101869709999,-33.118674695999914],[-71.1049246629999,-33.11365290599991],[-71.0830517359999,-33.103952757999934],[-71.07987306799993,-33.100675474999946],[-71.07168498699991,-33.09644227799993],[-71.0695905469999,-33.09667346999993],[-71.06622039399991,-33.10034211099992],[-71.06262799299992,-33.102001370999915],[-71.0545487629999,-33.098657157999924],[-71.03897165399991,-33.09738489499995],[-71.0322922439999,-33.092715212999906],[-71.0302118699999,-33.084680799999944],[-71.02734434999991,-33.08232892299992],[-71.02596683099995,-33.07817681599994],[-71.01901555299992,-33.072899452999934],[-71.0154253149999,-33.067472377999934],[-71.00877018099993,-33.06467010299991],[-71.01018713099995,-33.061364391999916],[-71.00791409699991,-33.05399872299995],[-71.00111864799993,-33.04958833099994],[-71.00132276399995,-33.04706397699994],[-71.00712475999995,-33.044516063999936],[-71.00882999999993,-33.04123000499993],[-71.01394300699991,-33.03692610799993],[-71.01595992799992,-33.02857134499993],[-71.0199325769999,-33.02047810899995],[-71.01961193499994,-33.01271959399992],[-71.02680850799993,-33.00507173999995],[-71.02720727499991,-32.988828258999945],[-71.04459513899991,-32.990131386999906],[-71.05899743599991,-32.98375552999994],[-71.07050716299995,-32.984254653999926],[-71.07696205699995,-32.981701948999955],[-71.07876603299991,-32.977137582999944],[-71.08358963499995,-32.97611447699995],[-71.08990064299991,-32.979131336999956],[-71.0997764249999,-32.97655574899994],[-71.10281870999995,-32.97403394299994],[-71.1035867189999,-32.97162022099991],[-71.11302302399992,-32.964947121999955],[-71.11988483199991,-32.953966806999915]]]}},{"type":"Feature","properties":{"cut":5804,"comuna":"VILLA ALEMANA"},"geometry":{"type":"Polygon","coordinates":[[[-71.28845914899995,-33.04423226499995],[-71.28622211599992,-33.040118580999945],[-71.2856927439999,-33.03508566799991],[-71.28994305599991,-33.02846211199994],[-71.28481446099994,-33.02043239299991],[-71.28575869199994,-33.01869407999993],[-71.2930762279999,-33.01443539199994],[-71.2952711289999,-33.01148944599993],[-71.31966409799992,-33.02331880699995],[-71.31996372099991,-33.02836591399995],[-71.32771691099992,-33.03826775099992],[-71.32795664399993,-33.04391865899993],[-71.33079187699991,-33.04459594899993],[-71.33688665999995,-33.04143698099995],[-71.33928653299995,-33.04401644099994],[-71.34116518899992,-33.043471362999924],[-71.3476795709999,-33.035907943999916],[-71.35865571699992,-33.029115995999916],[-71.37409936099994,-33.02488292999993],[-71.37520180799993,-33.02306158499994],[-71.37990317999993,-33.02070231099992],[-71.38340307499993,-33.01414466199992],[-71.39872225399995,-33.01311402999994],[-71.39979665099992,-33.045841942999914],[-71.39830415499995,-33.04610105899991],[-71.4000429749999,-33.066325365999944],[-71.3975321609999,-33.066647202999945],[-71.39780706699992,-33.068532829999924],[-71.39638622099994,-33.069770124999934],[-71.39210114499991,-33.070620310999914],[-71.38744842599993,-33.074088812999946],[-71.37933482999995,-33.07451170399992],[-71.37583148099992,-33.08192793099994],[-71.37185283199995,-33.07960610899994],[-71.36985864099995,-33.08030223399993],[-71.37100320699994,-33.08241329099991],[-71.36642942799995,-33.08654097999994],[-71.3665638949999,-33.0929123059999],[-71.36125955299991,-33.094983715999945],[-71.35895149799995,-33.09802903199994],[-71.34178608499991,-33.10285063199996],[-71.3329934859999,-33.10894780599995],[-71.32789045699991,-33.10927470899992],[-71.32539644499991,-33.10748749499993],[-71.3217795299999,-33.10831980499995],[-71.3105561989999,-33.11852838699991],[-71.30524385599995,-33.12026371099995],[-71.30105828599994,-33.12036973699992],[-71.29966691999994,-33.11743618399993],[-71.29225360499993,-33.118355813999926],[-71.28394873899992,-33.1212365369999],[-71.27597874199995,-33.12017850399991],[-71.2737706289999,-33.11696272699993],[-71.26907669699995,-33.11804637599994],[-71.26737695999992,-33.11665579599992],[-71.2659810369999,-33.11240178199995],[-71.26433848599993,-33.11229253599993],[-71.26085537299991,-33.10847437099994],[-71.2567284619999,-33.100679628999956],[-71.25976744499991,-33.09532544199993],[-71.26767746699994,-33.09041553499992],[-71.27063019099995,-33.085402995999914],[-71.27694092099995,-33.08022494499994],[-71.27948413699994,-33.0746348049999],[-71.27886850199991,-33.069626745999926],[-71.28969980799991,-33.058662188999904],[-71.29049578599995,-33.0504366909999],[-71.28874423799994,-33.04808916199994],[-71.28845914899995,-33.04423226499995]]]}},{"type":"Feature","properties":{"cut":13302,"comuna":"LAMPA"},"geometry":{"type":"Polygon","coordinates":[[[-70.79831626499993,-33.16965488499994],[-70.80298614599991,-33.172166759999925],[-70.8089396659999,-33.17031077699994],[-70.81313889299992,-33.17506360099992],[-70.81920300199994,-33.17683469599996],[-70.82585000099994,-33.18481000799994],[-70.83524303899992,-33.17962239299993],[-70.8571620109999,-33.18133255299995],[-70.8521175649999,-33.18544328199994],[-70.8494814579999,-33.1923238949999],[-70.84976881299991,-33.1986414239999],[-70.85651448199991,-33.20400844699992],[-70.86232860399991,-33.21856047299991],[-70.86705271999995,-33.225343826999904],[-70.87524856999994,-33.22741954199995],[-70.87968478699992,-33.22664319699993],[-70.8824003819999,-33.22806015099991],[-70.88788011899993,-33.22324991499994],[-70.88584999999995,-33.22132855199993],[-70.88555916799993,-33.214655561999905],[-70.89462862899995,-33.21078511899992],[-70.88968311499991,-33.19749695799993],[-70.8916096339999,-33.18680479199992],[-70.89003513699993,-33.18394599699991],[-70.89310558299991,-33.17978300999994],[-70.9080867639999,-33.18123253299996],[-70.91878287599991,-33.184687406999956],[-70.93014007199992,-33.186311416999956],[-70.93961753099995,-33.17695294999993],[-70.94707004199995,-33.17345001699994],[-70.9537300959999,-33.17235999799993],[-70.95792590799994,-33.17612588499992],[-70.96329330799995,-33.17744469199994],[-70.96965831199992,-33.17579494499995],[-70.9755962719999,-33.17189629299992],[-70.97815685799992,-33.173438949999934],[-70.98168829699995,-33.17221954599995],[-70.98344657399991,-33.172857535999924],[-70.98584893799995,-33.17963622599996],[-70.9883283719999,-33.18153279799992],[-70.99368638599992,-33.179647237999916],[-70.99265766699995,-33.18217335399993],[-70.99824261299995,-33.192131952999944],[-70.99715363999991,-33.19693165399991],[-70.9991172089999,-33.20322903099992],[-70.99915905699993,-33.20857922399995],[-71.0013143729999,-33.21154664399995],[-70.99939055399994,-33.21830980499993],[-71.0014352899999,-33.222462477999954],[-71.00113153399991,-33.224454211999955],[-70.99588021799991,-33.22911646299991],[-70.9957145859999,-33.23469600599992],[-70.98488554699992,-33.25298093199996],[-70.98261414799993,-33.261623079999936],[-70.97913794699991,-33.26533377499993],[-70.97912146399995,-33.27020819699993],[-70.97383176799991,-33.27985785499993],[-70.97553951099991,-33.28432987899993],[-70.96823948199994,-33.28971087699995],[-70.9715696369999,-33.29351762999994],[-70.97625605999991,-33.296059864999904],[-70.9835378919999,-33.295869988999925],[-70.9867324619999,-33.29418524199991],[-70.9884882419999,-33.29945937499991],[-70.99306939999991,-33.30131416899991],[-71.0019505649999,-33.30822599699991],[-71.00139761999992,-33.31456829799993],[-71.00344108599995,-33.31940371799993],[-71.00348010699992,-33.32999593699992],[-70.99567999899995,-33.34321999999992],[-70.9900957399999,-33.34550857399995],[-70.98684499599995,-33.3494471809999],[-70.98743696699995,-33.35519192499993],[-70.98523999999992,-33.360759999999914],[-70.98245110599993,-33.36146231999993],[-70.97179464099992,-33.36963088299996],[-70.96762549699991,-33.37616526799991],[-70.9509250019999,-33.38428045999996],[-70.9464836649999,-33.38454904099996],[-70.94221464399993,-33.38104594799995],[-70.92462500199991,-33.37574820399993],[-70.90976623499995,-33.3681703659999],[-70.90710174399993,-33.36838553599995],[-70.89990777799994,-33.37317967699994],[-70.89590681599992,-33.373920781999914],[-70.89174379999992,-33.376576309999905],[-70.88854955699992,-33.37511290799995],[-70.87936728499994,-33.37578114299993],[-70.87416271199993,-33.373479990999954],[-70.87047116499991,-33.37576984099991],[-70.86023459599994,-33.37632047799991],[-70.85102384399994,-33.381129804999944],[-70.83947284699991,-33.38514464599996],[-70.83767586999994,-33.384557540999936],[-70.8372841879999,-33.382581503999916],[-70.83267940099995,-33.380841707999934],[-70.8321836909999,-33.37762675499994],[-70.82936286899991,-33.37615259499995],[-70.82729513599992,-33.37172764099995],[-70.82475115599993,-33.37109941199992],[-70.8207912439999,-33.363013778999914],[-70.8111304379999,-33.359330325999906],[-70.80708690999995,-33.353369620999956],[-70.80429023399995,-33.351694048999946],[-70.79878632899994,-33.34512711499991],[-70.79791867999995,-33.33768617699991],[-70.78851593099995,-33.34024371599992],[-70.7190123279999,-33.324417410999956],[-70.7833785709999,-33.18050912699994],[-70.79831626499993,-33.16965488499994]]]}},{"type":"Feature","properties":{"cut":13303,"comuna":"TILTIL"},"geometry":{"type":"Polygon","coordinates":[[[-70.73599000199994,-32.921949997999945],[-70.73908582399991,-32.92459051399993],[-70.74221406899994,-32.92467477899993],[-70.74769834699993,-32.92902901899993],[-70.75013467499991,-32.928283095999916],[-70.75743723999994,-32.9300138129999],[-70.76088469099994,-32.92916690099992],[-70.76391300999995,-32.932369285999926],[-70.7715368339999,-32.935457147999955],[-70.77799419999991,-32.93334668399996],[-70.7817264169999,-32.929134452999904],[-70.79211051699991,-32.92929588299995],[-70.79432118299991,-32.92585185799993],[-70.80393012099995,-32.92483281299991],[-70.81226236799995,-32.92979819099992],[-70.81682734799995,-32.93059107399995],[-70.82389591999993,-32.92810668399994],[-70.83607085199992,-32.92708089599995],[-70.84194517299994,-32.922406544999944],[-70.84801761599994,-32.92696088999992],[-70.85302891099991,-32.92893868699991],[-70.8618100029999,-32.93005000499994],[-70.86530716199991,-32.932202564999955],[-70.8723289969999,-32.931060919999936],[-70.88588826599994,-32.938636311999915],[-70.89704285899995,-32.934223380999924],[-70.90660601299993,-32.93583957399994],[-70.90877578999994,-32.944110689999945],[-70.91154829399994,-32.945517181999946],[-70.91587998499995,-32.94461000699994],[-70.92846896899994,-32.967543820999936],[-70.93917421899994,-32.97280389499991],[-70.94682042499994,-32.97225067499994],[-70.95348000099995,-32.965670005999925],[-70.96232703099992,-32.97267262699995],[-70.96954538999995,-32.97559147299995],[-70.98278827999991,-32.97638376499992],[-70.98623703899995,-32.98009481999992],[-70.98781751399991,-32.97851464699994],[-70.99879504299992,-32.97537549999993],[-71.01415648299991,-32.976337276999914],[-71.01863903499992,-32.97869154199992],[-71.0273868779999,-32.989266108999914],[-71.02680850799993,-33.00507173999995],[-71.01961193499994,-33.01271959399992],[-71.0199325769999,-33.02047810899995],[-71.01595992799992,-33.02857134499993],[-71.01394300699991,-33.03692610799993],[-71.00882999999993,-33.04123000499993],[-71.00712475999995,-33.044516063999936],[-71.00132276399995,-33.04706397699994],[-71.00111864799993,-33.04958833099994],[-71.00791409699991,-33.05399872299995],[-71.01018713099995,-33.061364391999916],[-71.00877018099993,-33.06467010299991],[-71.01696951999992,-33.068886996999936],[-71.0187709459999,-33.07263036799992],[-71.02596683099995,-33.07817681599994],[-71.02734434999991,-33.08232892299992],[-71.0297718729999,-33.08415560199995],[-71.02262854199995,-33.08777993699994],[-71.01472394099994,-33.09569536099991],[-71.0201085139999,-33.11022862999994],[-71.01948390399991,-33.11962173599994],[-71.01675399499993,-33.12252890499991],[-71.01279244799991,-33.131827794999936],[-71.01321459099995,-33.141974483999945],[-71.01157265899991,-33.15236459599993],[-71.01013441599991,-33.15512851999995],[-71.00471849799993,-33.15397706299996],[-71.00414174299993,-33.15870365999996],[-70.99515599999995,-33.169771057999924],[-70.9944716139999,-33.17284717599995],[-70.98964223299993,-33.17670567399995],[-70.99038462499993,-33.17847599299995],[-70.99368638599992,-33.179647237999916],[-70.9883283719999,-33.18153279799992],[-70.98584893799995,-33.17963622599996],[-70.98344657399991,-33.172857535999924],[-70.98168829699995,-33.17221954599995],[-70.97815685799992,-33.173438949999934],[-70.9755962719999,-33.17189629299992],[-70.96965831199992,-33.17579494499995],[-70.96329330799995,-33.17744469199994],[-70.95792590799994,-33.17612588499992],[-70.9537300959999,-33.17235999799993],[-70.94707004199995,-33.17345001699994],[-70.93961753099995,-33.17695294999993],[-70.93014007199992,-33.186311416999956],[-70.91878287599991,-33.184687406999956],[-70.9080867639999,-33.18123253299996],[-70.89310558299991,-33.17978300999994],[-70.89003513699993,-33.18394599699991],[-70.8916096339999,-33.18680479199992],[-70.88968311499991,-33.19749695799993],[-70.89462862899995,-33.21078511899992],[-70.88555916799993,-33.214655561999905],[-70.88584999999995,-33.22132855199993],[-70.88788011899993,-33.22324991499994],[-70.8824003819999,-33.22806015099991],[-70.87968478699992,-33.22664319699993],[-70.87524856999994,-33.22741954199995],[-70.86705271999995,-33.225343826999904],[-70.86232860399991,-33.21856047299991],[-70.85651448199991,-33.20400844699992],[-70.84976881299991,-33.1986414239999],[-70.8494814579999,-33.1923238949999],[-70.8521175649999,-33.18544328199994],[-70.8571620109999,-33.18133255299995],[-70.83524303899992,-33.17962239299993],[-70.82585000099994,-33.18481000799994],[-70.81920300199994,-33.17683469599996],[-70.81313889299992,-33.17506360099992],[-70.8089396659999,-33.17031077699994],[-70.80298614599991,-33.172166759999925],[-70.79926045899992,-33.16961124699992],[-70.79190620299994,-33.17296367299991],[-70.78643643999993,-33.17213095699992],[-70.7792933529999,-33.17322417699995],[-70.77500650499991,-33.17541449899994],[-70.76974875899992,-33.17526172499993],[-70.76446680499993,-33.17946104799995],[-70.76014872399992,-33.178531276999934],[-70.7564478999999,-33.179802113999926],[-70.75220172799993,-33.17528233399992],[-70.74591000799995,-33.1719694919999],[-70.74459991599991,-33.169279839999945],[-70.73957126399995,-33.168670368999926],[-70.73373955699992,-33.165619800999934],[-70.73419396299994,-33.16104508099994],[-70.73878933899994,-33.158256415999915],[-70.74425351999992,-33.14490603099995],[-70.75257420399993,-33.14182526499991],[-70.7579527179999,-33.13670582699996],[-70.75652075799991,-33.12804680399995],[-70.75755374899995,-33.12510131999994],[-70.75341358299994,-33.1176798969999],[-70.7585958869999,-33.10127357999994],[-70.74856010299993,-33.082792972999925],[-70.74693510599991,-33.07053864499994],[-70.74756523199994,-33.068496860999915],[-70.75069415399992,-33.066751379999914],[-70.7522732889999,-33.06422461299991],[-70.76183580199995,-33.05945524799995],[-70.76712235399992,-33.05459838399992],[-70.76495807099991,-33.04939103699991],[-70.7599718649999,-33.04628119599994],[-70.75822196299993,-33.04335454799991],[-70.76138868599992,-33.03607944799995],[-70.7533105949999,-33.02707428299993],[-70.75326417799994,-33.02429613499993],[-70.75572011999992,-33.020093628999916],[-70.75494431299995,-33.01727076399993],[-70.75020370599992,-33.01178265599992],[-70.7599300039999,-33.0029300029999],[-70.75885876299992,-32.99739843899994],[-70.76131039799992,-32.993809950999946],[-70.76091130599991,-32.99212556899994],[-70.76270702799991,-32.98855183099994],[-70.77055000399992,-32.98354000099994],[-70.76105923299991,-32.97994997199993],[-70.76004998699995,-32.977640573999906],[-70.75388657199994,-32.97432229499992],[-70.74981637799993,-32.968574781999905],[-70.74726100299995,-32.966933397999924],[-70.7385586499999,-32.96578153699994],[-70.72617711899994,-32.95761241099996],[-70.72328997999995,-32.95389000199992],[-70.72027813099993,-32.95296815799992],[-70.72115119199992,-32.94947969499992],[-70.7200099929999,-32.94439999799994],[-70.72139032299992,-32.934999744999914],[-70.72280677999993,-32.93246243199991],[-70.72174865799991,-32.92615514999994],[-70.72978799999993,-32.92585388899994],[-70.73599000199994,-32.921949997999945]]]}},{"type":"Feature","properties":{"cut":13503,"comuna":"CURACAVÍ"},"geometry":{"type":"Polygon","coordinates":[[[-70.99773999999991,-33.198569999999904],[-71.00575601699995,-33.19798760799995],[-71.0153798149999,-33.1999309869999],[-71.01750281099993,-33.203385048999905],[-71.02162919699992,-33.20147837299993],[-71.02684440599995,-33.20170039899995],[-71.02916250299995,-33.205743957999914],[-71.02613933799995,-33.21113967999992],[-71.02582669399993,-33.214981991999935],[-71.0274233419999,-33.21655144999994],[-71.03205495599991,-33.215537000999916],[-71.03351116399995,-33.214065095999956],[-71.0326872999999,-33.21076769599995],[-71.04065199299993,-33.20670081499992],[-71.0441279499999,-33.209731192999925],[-71.04758634199993,-33.21007554199991],[-71.05280696499995,-33.205217648999906],[-71.0570015699999,-33.20450847799992],[-71.05836249499993,-33.21146767399995],[-71.06043055799995,-33.21492154799995],[-71.05980730699991,-33.22261103699992],[-71.06076217799995,-33.22621854699992],[-71.07456909399991,-33.230832697999915],[-71.08210894299992,-33.22491279099995],[-71.09389687799995,-33.21944759599995],[-71.09675732599993,-33.22060986699995],[-71.1092416699999,-33.22043372099995],[-71.11381919999991,-33.222551137999915],[-71.11524894599995,-33.226051071999905],[-71.1198908149999,-33.231044536999946],[-71.14023890199991,-33.237653104999936],[-71.14877706199991,-33.23246184899995],[-71.15075577399995,-33.22953168299995],[-71.16244296699995,-33.225508609999906],[-71.1642873699999,-33.22639796199991],[-71.16599934699991,-33.22956625699993],[-71.1703630479999,-33.23062362999991],[-71.1820415329999,-33.22736480699996],[-71.1898980389999,-33.22666458999993],[-71.19553119199992,-33.22845000199993],[-71.19941001199993,-33.22811818999992],[-71.20501749199991,-33.23156398099991],[-71.21075999899995,-33.231679999999926],[-71.21613487699994,-33.234450428999935],[-71.21546378799991,-33.23911625099993],[-71.22184707399992,-33.240666880999925],[-71.22574128199994,-33.24699459099992],[-71.22574660499993,-33.24945505099993],[-71.22129398499993,-33.2537671149999],[-71.21946051499992,-33.25987112899992],[-71.22373062499992,-33.26592933999996],[-71.22702029299995,-33.26802499899992],[-71.22339032999992,-33.27002555899992],[-71.2226287439999,-33.279274020999935],[-71.21346826399991,-33.28716236099996],[-71.2146654359999,-33.29324064699995],[-71.21040192699991,-33.302595649999944],[-71.20683591099993,-33.305953279999926],[-71.20620606799991,-33.308464906999916],[-71.20116312599993,-33.31020763499993],[-71.19583980699991,-33.30988698999994],[-71.19545988699991,-33.31154131799991],[-71.2049669889999,-33.32094460099995],[-71.20568530399993,-33.330806769999924],[-71.21335831199991,-33.33101953399995],[-71.21074923799995,-33.33531650899994],[-71.21585984399991,-33.34873947299991],[-71.21419875599992,-33.35509485199992],[-71.22000133499995,-33.360612820999904],[-71.22011405299992,-33.36473209499991],[-71.22306561799991,-33.369616410999924],[-71.22312717799991,-33.373060756999905],[-71.23219549099991,-33.37522780199993],[-71.23643376399991,-33.37442503999995],[-71.24333209899993,-33.38176389699993],[-71.2438472309999,-33.38373005299991],[-71.25525693499992,-33.38339499099993],[-71.26651950599995,-33.38747125099991],[-71.26822280399995,-33.39412317299991],[-71.27610373599992,-33.39954159699994],[-71.27719707299991,-33.402070814999945],[-71.27347839899994,-33.405708182999945],[-71.2649200219999,-33.41048377299995],[-71.25703681099992,-33.410372055999915],[-71.25116687399992,-33.41212317499992],[-71.25026282899995,-33.415277068999956],[-71.24659895999991,-33.41677477299993],[-71.24493840999992,-33.41966237299994],[-71.24215461099993,-33.420745017999934],[-71.24052135599993,-33.42520596899993],[-71.23219834699995,-33.42680054899995],[-71.22982483099992,-33.43350645399994],[-71.2088966199999,-33.434709435999935],[-71.20590103799992,-33.438443235999955],[-71.20108978099995,-33.440720100999954],[-71.19312183199992,-33.440750116999936],[-71.18891257899992,-33.44363959699996],[-71.18826675399993,-33.44954945899991],[-71.18589878599994,-33.45190810299994],[-71.17566443099992,-33.45030987599995],[-71.16495608499991,-33.44513491299995],[-71.16158142199993,-33.44865303799992],[-71.15385655999995,-33.446822787999906],[-71.15240781999995,-33.44866571299991],[-71.1496936719999,-33.44920765299992],[-71.14242876499992,-33.446949428999915],[-71.13713337099995,-33.44800541199993],[-71.11800902599992,-33.44630436299991],[-71.10892744799992,-33.44110286999995],[-71.1014021439999,-33.44595383199993],[-71.08905454099994,-33.44395142299993],[-71.07560745799992,-33.43847064499994],[-71.06899463799994,-33.43376878799995],[-71.06406986399992,-33.433672473999934],[-71.05919758399995,-33.430208481999955],[-71.05819762499993,-33.43472112799992],[-71.06569372899992,-33.45038443099992],[-71.0662460019999,-33.454063343999906],[-71.06527122799992,-33.45596627999993],[-71.06644145999991,-33.45916823199991],[-71.0721264039999,-33.464036811999904],[-71.0736289649999,-33.46750754899995],[-71.0711357369999,-33.472005321999916],[-71.06907556899995,-33.472021370999926],[-71.06108576699995,-33.47863928899994],[-71.06298041699995,-33.485527599999955],[-71.06289398399991,-33.49377269699994],[-71.04447048799994,-33.503222928999946],[-71.0360762119999,-33.52176936899991],[-71.03440232699995,-33.52299527899993],[-71.0295024799999,-33.523340222999934],[-71.0265699919999,-33.52542295599994],[-71.02333758999993,-33.52858871099994],[-71.02198952099991,-33.53305842099991],[-71.01712277799993,-33.535312200999954],[-71.01316693599995,-33.53931753899991],[-70.99815201299992,-33.53857567499995],[-70.99138563899993,-33.54124330499991],[-70.9888573799999,-33.54565470399996],[-70.9860591769999,-33.546730468999954],[-70.97345275799995,-33.54515813599994],[-70.96992323899991,-33.54666056499991],[-70.96013533899992,-33.547574020999946],[-70.95215960999991,-33.551706631999934],[-70.94897210099992,-33.555999106999934],[-70.94808538199993,-33.559951346999924],[-70.9380426859999,-33.555127901999924],[-70.93572906199995,-33.55132543299993],[-70.9329732889999,-33.55036580899991],[-70.92931552599993,-33.54623119899992],[-70.9262597629999,-33.53699569199995],[-70.92685660199993,-33.5334748219999],[-70.92270598399995,-33.52419881199995],[-70.9226484909999,-33.517311468999935],[-70.9196199889999,-33.51384795599995],[-70.92330013499992,-33.50926595499993],[-70.92775814599992,-33.50813169599991],[-70.92998787699992,-33.50460639499994],[-70.92340923799992,-33.48973395899992],[-70.91993515599995,-33.48797108399992],[-70.9314547429999,-33.47503115999996],[-70.93741820699995,-33.47513939699991],[-70.9418460089999,-33.47142187999992],[-70.94838748599994,-33.46904135799991],[-70.94975452199992,-33.46167927999994],[-70.94847735999991,-33.458213404999924],[-70.9494577179999,-33.45349354299992],[-70.95500367699992,-33.44737062899992],[-70.95418338999991,-33.43932424199994],[-70.94848199299992,-33.43207879199991],[-70.94848584199991,-33.42714013299991],[-70.94601637799991,-33.421553753999945],[-70.9480008779999,-33.41817658399992],[-70.94674400899993,-33.41683614999994],[-70.9512806589999,-33.412111454999945],[-70.94982567799991,-33.40723862099992],[-70.95015241099992,-33.40282501099995],[-70.95185338199991,-33.399950203999936],[-70.94855410899993,-33.39160389299991],[-70.94813308899995,-33.38652156199993],[-70.94648432399993,-33.384549155999935],[-70.9509250019999,-33.38428045999996],[-70.9567201449999,-33.38073533799991],[-70.96281999999991,-33.37927999999994],[-70.96762549699991,-33.37616526799991],[-70.97179464099992,-33.36963088299996],[-70.98245110599993,-33.36146231999993],[-70.98523999999992,-33.360759999999914],[-70.98743696699995,-33.35519192499993],[-70.98684499599995,-33.3494471809999],[-70.9900957399999,-33.34550857399995],[-70.99567999899995,-33.34321999999992],[-71.00348010699992,-33.32999593699992],[-71.00344108599995,-33.31940371799993],[-71.00139761999992,-33.31456829799993],[-71.0019505649999,-33.30822599699991],[-71.00061832699993,-33.306309126999906],[-70.9884882419999,-33.29945937499991],[-70.9867324619999,-33.29418524199991],[-70.9835378919999,-33.295869988999925],[-70.97625605999991,-33.296059864999904],[-70.9715696369999,-33.29351762999994],[-70.96823948199994,-33.28971087699995],[-70.97553951099991,-33.28432987899993],[-70.97383176799991,-33.27985785499993],[-70.97912146399995,-33.27020819699993],[-70.97913794699991,-33.26533377499993],[-70.98261414799993,-33.261623079999936],[-70.98488554699992,-33.25298093199996],[-70.9957145859999,-33.23469600599992],[-70.99588021799991,-33.22911646299991],[-71.00113153399991,-33.224454211999955],[-71.0014352899999,-33.222462477999954],[-70.99939055399994,-33.21830980499993],[-71.0013143729999,-33.21154664399995],[-70.99915905699993,-33.20857922399995],[-70.99773999999991,-33.198569999999904]]]}}]}